{"type":"FeatureCollection","features":[{"type":"Feature","properties":{"id":"achham","en":"Achham","ne":"अछाम","province":"sudurpaschim"},"geometry":{"type":"Polygon","coordinates":[[[81.1712,29.3865],[81.249,29.3508],[81.2681,29.3018],[81.3092,29.3251],[81.3543,29.2841],[81.3821,29.3027],[81.4943,29.258],[81.4821,29.2006],[81.497,29.1548],[81.5656,29.1262],[81.4694,29.0781],[81.4101,28.997],[81.4446,28.9404],[81.509,28.8898],[81.5799,28.7801],[81.5783,28.7555],[81.5205,28.7491],[81.5351,28.7613],[81.5155,28.7805],[81.5224,28.8033],[81.4633,28.8528],[81.4649,28.8937],[81.4318,28.9107],[81.3552,28.8898],[81.3021,28.9258],[81.2661,28.9027],[81.2042,28.9081],[81.1038,28.9657],[81.1453,28.9935],[81.1449,29.0348],[81.1214,29.0654],[81.1286,29.0813],[81.0267,29.1953],[81.1135,29.2275],[81.1,29.2614],[81.1357,29.3049],[81.1534,29.382],[81.1712,29.3865]]]}},{"type":"Feature","properties":{"id":"arghakhanchi","en":"Arghakhanchi","ne":"अर्घाखाँची","province":"lumbini"},"geometry":{"type":"Polygon","coordinates":[[[83.0045,28.112],[83.0686,28.1095],[83.0732,28.0908],[83.1254,28.0845],[83.1504,28.0598],[83.1839,28.0877],[83.2299,28.0484],[83.2525,27.987],[83.3009,27.9678],[83.2786,27.9315],[83.3081,27.9277],[83.2978,27.9093],[83.3305,27.8752],[83.3006,27.8598],[83.2898,27.828],[83.231,27.8233],[83.2585,27.785],[83.2463,27.7512],[83.1216,27.7618],[83.0934,27.783],[83.0525,27.7567],[83.0197,27.8207],[82.9965,27.7929],[82.9299,27.7844],[82.7875,27.7945],[82.7485,27.8231],[82.8074,27.8574],[82.792,27.8655],[82.8243,27.9057],[82.9158,27.9042],[82.943,27.9311],[83.0143,27.9227],[82.9997,27.9778],[82.9524,27.9941],[82.9736,28.0065],[82.9616,28.0463],[83.0045,28.112]]]}},{"type":"Feature","properties":{"id":"baglung","en":"Baglung","ne":"बागलुङ","province":"gandaki"},"geometry":{"type":"Polygon","coordinates":[[[83.0997,28.6345],[83.1015,28.5414],[83.1257,28.5278],[83.1312,28.4962],[83.2195,28.5139],[83.2965,28.4702],[83.2726,28.4421],[83.2968,28.4158],[83.2788,28.3675],[83.3119,28.3546],[83.3636,28.3707],[83.5352,28.3032],[83.5846,28.3099],[83.61,28.2591],[83.668,28.2306],[83.6391,28.1363],[83.5895,28.0809],[83.5482,28.1199],[83.4233,28.1252],[83.3555,28.1975],[83.2737,28.1876],[83.1848,28.2707],[83.1308,28.2502],[83.0936,28.257],[83.0669,28.3134],[82.9547,28.3602],[82.9436,28.3985],[82.9162,28.4027],[82.9143,28.4342],[82.8787,28.4736],[82.9118,28.4806],[82.8774,28.5154],[82.9141,28.5276],[82.9208,28.5672],[82.9774,28.5462],[82.9855,28.5709],[82.9526,28.5981],[82.977,28.629],[83.0575,28.6201],[83.0997,28.6345]]]}},{"type":"Feature","properties":{"id":"baitadi","en":"Baitadi","ne":"बैतडी","province":"sudurpaschim"},"geometry":{"type":"Polygon","coordinates":[[[80.7585,29.7045],[80.796,29.6883],[80.763,29.662],[80.762,29.6475],[80.7909,29.6414],[80.7866,29.6027],[80.7483,29.5307],[80.7884,29.5068],[80.8171,29.5157],[80.8832,29.4427],[80.9083,29.4415],[80.8521,29.4076],[80.8517,29.3774],[80.786,29.3663],[80.7674,29.3999],[80.6821,29.4251],[80.6506,29.3826],[80.5522,29.4186],[80.5321,29.392],[80.4312,29.3925],[80.4145,29.356],[80.3681,29.35],[80.3627,29.3271],[80.3265,29.3085],[80.2913,29.3302],[80.2753,29.3922],[80.2417,29.4116],[80.2433,29.4445],[80.3026,29.4531],[80.2869,29.4772],[80.3454,29.5137],[80.3581,29.5325],[80.3428,29.5529],[80.3789,29.5613],[80.4178,29.614],[80.4969,29.6247],[80.5736,29.6875],[80.6515,29.6812],[80.6891,29.7052],[80.7585,29.7045]]]}},{"type":"Feature","properties":{"id":"bajhang","en":"Bajhang","ne":"बझाङ","province":"sudurpaschim"},"geometry":{"type":"Polygon","coordinates":[[[81.0901,30.0542],[81.1494,30.0116],[81.2451,30.0111],[81.2374,30.0318],[81.272,30.0453],[81.3571,30.0106],[81.4013,30.0228],[81.4566,30.0014],[81.4702,29.9732],[81.4528,29.9512],[81.4564,29.9012],[81.5331,29.8835],[81.565,29.8516],[81.5467,29.7946],[81.5606,29.7706],[81.5409,29.7474],[81.5106,29.75],[81.5159,29.6794],[81.4275,29.644],[81.4,29.5584],[81.2909,29.4749],[81.3029,29.4514],[81.2518,29.4133],[81.202,29.3957],[81.1707,29.4116],[81.144,29.3909],[81.0226,29.4219],[80.9395,29.3976],[80.9121,29.4454],[80.8836,29.4425],[80.8171,29.5157],[80.7884,29.5068],[80.7483,29.5307],[80.7866,29.6027],[80.7909,29.6414],[80.762,29.6475],[80.763,29.662],[80.9399,29.7355],[80.9752,29.7219],[80.9882,29.7412],[81.0566,29.7576],[81.0699,29.8284],[81.0401,29.8407],[81.0408,29.8817],[81.0006,29.9282],[81.0381,30.0151],[81.0901,30.0542]]]}},{"type":"Feature","properties":{"id":"bajura","en":"Bajura","ne":"बाजुरा","province":"sudurpaschim"},"geometry":{"type":"Polygon","coordinates":[[[81.6981,29.9411],[81.716,29.9094],[81.7995,29.9006],[81.7804,29.8071],[81.7396,29.7922],[81.6971,29.6783],[81.7158,29.6209],[81.7738,29.6058],[81.7985,29.5766],[81.7929,29.5306],[81.7625,29.5054],[81.788,29.5],[81.8071,29.4662],[81.7893,29.389],[81.7611,29.3866],[81.7403,29.3343],[81.67,29.3169],[81.6477,29.3215],[81.6256,29.3689],[81.5585,29.3579],[81.4681,29.2719],[81.443,29.2874],[81.4168,29.2769],[81.3821,29.3027],[81.3543,29.2841],[81.3092,29.3251],[81.2681,29.3018],[81.249,29.3508],[81.17,29.3867],[81.3029,29.4514],[81.2909,29.4749],[81.4,29.5584],[81.4275,29.644],[81.5159,29.6794],[81.5244,29.7106],[81.5083,29.7428],[81.5524,29.7543],[81.565,29.8514],[81.5056,29.8944],[81.5121,29.9167],[81.6448,29.9481],[81.6981,29.9411]]]}},{"type":"Feature","properties":{"id":"banke","en":"Banke","ne":"बाँके","province":"lumbini"},"geometry":{"type":"Polygon","coordinates":[[[81.6858,28.3379],[81.7864,28.2952],[81.7937,28.2739],[81.8436,28.272],[81.8609,28.2387],[81.9216,28.2269],[82.0026,28.1581],[82.021,28.0994],[82.1742,28.046],[82.1939,28.0253],[82.1923,27.9534],[82.0698,27.9527],[82.0627,27.9218],[81.9683,27.929],[81.9262,27.8598],[81.8996,27.8539],[81.6984,27.9883],[81.6244,28.0015],[81.505,28.0689],[81.5248,28.0843],[81.4988,28.145],[81.5224,28.1573],[81.5281,28.195],[81.6472,28.2663],[81.6407,28.2797],[81.6621,28.2874],[81.6858,28.3379]]]}},{"type":"Feature","properties":{"id":"bara","en":"Bara","ne":"बारा","province":"madhesh"},"geometry":{"type":"Polygon","coordinates":[[[84.997,27.3649],[85.0871,27.3609],[85.1556,27.2624],[85.243,27.2487],[85.271,27.2265],[85.2312,27.1342],[85.1972,27.1075],[85.2005,27.0658],[85.1831,27.0498],[85.2006,27.0392],[85.1772,27.0376],[85.1982,27.0279],[85.1636,26.9805],[85.1764,26.8693],[85.022,26.8549],[85.0602,26.887],[84.9676,26.9163],[84.9783,26.9403],[84.9623,26.9605],[84.8662,26.9838],[84.9113,27.0182],[84.9001,27.0461],[84.9358,27.071],[84.9242,27.0839],[84.955,27.1269],[84.9447,27.164],[84.9732,27.267],[84.9584,27.307],[84.9695,27.3563],[84.997,27.3649]]]}},{"type":"Feature","properties":{"id":"bardiya","en":"Bardiya","ne":"बर्दिया","province":"lumbini"},"geometry":{"type":"Polygon","coordinates":[[[81.2942,28.6734],[81.3211,28.6676],[81.3164,28.6368],[81.401,28.6069],[81.438,28.5596],[81.6585,28.4155],[81.7667,28.3702],[81.7451,28.3133],[81.6736,28.3377],[81.6914,28.3275],[81.6407,28.2797],[81.6472,28.2663],[81.5283,28.1952],[81.5224,28.1573],[81.4988,28.145],[81.5248,28.0843],[81.505,28.0689],[81.4785,28.0826],[81.4841,28.1183],[81.4258,28.171],[81.3748,28.177],[81.3714,28.1425],[81.3181,28.1336],[81.328,28.1483],[81.3019,28.1661],[81.3213,28.1689],[81.3206,28.1973],[81.2328,28.289],[81.2135,28.3583],[81.0799,28.385],[81.0592,28.408],[81.0914,28.4578],[81.1602,28.5015],[81.2489,28.5945],[81.2942,28.6734]]]}},{"type":"Feature","properties":{"id":"bhaktapur","en":"Bhaktapur","ne":"भक्तपुर","province":"bagmati"},"geometry":{"type":"Polygon","coordinates":[[[85.52,27.7287],[85.5213,27.6943],[85.4633,27.6255],[85.454,27.6371],[85.4182,27.6201],[85.352,27.668],[85.4215,27.7239],[85.52,27.7287]]]}},{"type":"Feature","properties":{"id":"bhojpur","en":"Bhojpur","ne":"भोजपुर","province":"koshi"},"geometry":{"type":"Polygon","coordinates":[[[87.1098,27.4622],[87.1403,27.4476],[87.1252,27.402],[87.1922,27.3524],[87.1821,27.3161],[87.2014,27.3019],[87.2027,27.2461],[87.2754,27.1569],[87.1832,27.0745],[87.1985,27.0081],[87.1602,26.9669],[87.1561,26.9157],[87.1355,26.9274],[87.0012,26.8865],[86.9498,26.9077],[86.973,26.9573],[86.9571,26.9854],[86.9671,27.0075],[86.9447,27.0204],[86.9646,27.0581],[86.8948,27.115],[86.9172,27.129],[86.9297,27.2032],[86.8951,27.2498],[86.9482,27.2662],[86.9853,27.3083],[86.9316,27.3573],[86.906,27.4335],[86.9403,27.4593],[87.0101,27.4361],[87.1098,27.4622]]]}},{"type":"Feature","properties":{"id":"chitwan","en":"Chitwan","ne":"चितवन","province":"bagmati"},"geometry":{"type":"Polygon","coordinates":[[[84.6203,27.8805],[84.664,27.8406],[84.6634,27.8236],[84.6183,27.8093],[84.6456,27.8001],[84.6379,27.783],[84.6748,27.7786],[84.6746,27.7307],[84.7575,27.7357],[84.7967,27.7087],[84.7675,27.6568],[84.7176,27.6392],[84.7383,27.6036],[84.7098,27.562],[84.68,27.5516],[84.6968,27.4754],[84.6648,27.4295],[84.5617,27.463],[84.5325,27.4144],[84.5397,27.3859],[84.4708,27.355],[84.2919,27.385],[84.2543,27.4521],[84.2086,27.4427],[84.2058,27.4697],[84.1489,27.486],[84.1458,27.5189],[84.0979,27.5173],[84.0955,27.4897],[84.0272,27.4337],[83.9312,27.4496],[83.9388,27.4916],[83.9695,27.5154],[83.953,27.5276],[83.9256,27.5148],[83.9236,27.5441],[84.0312,27.5373],[84.0506,27.5565],[84.1147,27.5533],[84.2067,27.6388],[84.3455,27.7028],[84.3781,27.6813],[84.4272,27.7034],[84.422,27.7413],[84.472,27.7544],[84.4313,27.7869],[84.4334,27.8141],[84.5171,27.8162],[84.5805,27.8744],[84.6203,27.8805]]]}},{"type":"Feature","properties":{"id":"dadeldhura","en":"Dadeldhura","ne":"डडेलधुरा","province":"sudurpaschim"},"geometry":{"type":"Polygon","coordinates":[[[80.6892,29.4224],[80.7677,29.3997],[80.7858,29.3707],[80.7574,29.3469],[80.7725,29.3019],[80.7342,29.2987],[80.7568,29.2676],[80.7068,29.2314],[80.7043,29.1922],[80.6168,29.18],[80.5667,29.1445],[80.5666,29.1189],[80.5266,29.1058],[80.5622,29.0727],[80.519,28.9993],[80.472,28.9966],[80.4783,29.0177],[80.4591,29.0376],[80.4203,29.0265],[80.3127,29.0583],[80.2289,29.0453],[80.186,29.0872],[80.1845,29.1373],[80.2334,29.1185],[80.2729,29.1435],[80.2409,29.2034],[80.2528,29.2215],[80.2937,29.1977],[80.3171,29.3134],[80.3627,29.3271],[80.3681,29.35],[80.4145,29.356],[80.4312,29.3925],[80.5321,29.392],[80.5522,29.4186],[80.6506,29.3826],[80.6786,29.4014],[80.669,29.419],[80.6892,29.4224]]]}},{"type":"Feature","properties":{"id":"dailekh","en":"Dailekh","ne":"दैलेख","province":"karnali"},"geometry":{"type":"Polygon","coordinates":[[[81.5792,29.136],[81.5671,29.0519],[81.6134,29.0335],[81.6906,29.0497],[81.7159,29.0201],[81.795,29.0136],[81.8482,28.9723],[81.9197,28.9777],[81.9245,28.9249],[81.8939,28.9008],[81.8784,28.8491],[81.9123,28.7801],[81.8798,28.7468],[81.8244,28.7327],[81.7812,28.6348],[81.6753,28.6792],[81.6393,28.6765],[81.5626,28.7237],[81.5465,28.7491],[81.5789,28.756],[81.5799,28.7801],[81.4103,28.9966],[81.4694,29.0781],[81.5792,29.136]]]}},{"type":"Feature","properties":{"id":"dang","en":"Dang","ne":"दाङ","province":"lumbini"},"geometry":{"type":"Polygon","coordinates":[[[82.1012,28.2591],[82.1438,28.2372],[82.1695,28.2516],[82.3004,28.246],[82.3671,28.1899],[82.3928,28.1893],[82.409,28.161],[82.4846,28.1305],[82.504,28.1499],[82.5572,28.1363],[82.6253,28.0699],[82.7187,28.0473],[82.6964,28.0141],[82.7627,27.9769],[82.7515,27.9438],[82.7757,27.9259],[82.7743,27.8937],[82.8102,27.8711],[82.7485,27.8231],[82.7871,27.7946],[82.7978,27.8034],[82.804,27.7774],[82.6962,27.7567],[82.7052,27.7166],[82.4494,27.6787],[82.2083,27.8432],[82.1234,27.8651],[82.0652,27.9253],[82.0674,27.9507],[82.1922,27.9532],[82.1936,28.0263],[82.021,28.0994],[82.0076,28.1511],[82.0422,28.2302],[82.1012,28.2591]]]}},{"type":"Feature","properties":{"id":"darchula","en":"Darchula","ne":"दार्चुला","province":"sudurpaschim"},"geometry":{"type":"Polygon","coordinates":[[[80.9896,30.2463],[81.0289,30.233],[81.0439,30.1806],[81.0832,30.1482],[81.0812,30.1005],[81.1087,30.0862],[81.0381,30.0151],[81.0006,29.9282],[81.0408,29.8817],[81.0401,29.8407],[81.0699,29.8284],[81.0566,29.7576],[80.9882,29.7412],[80.9752,29.7219],[80.9399,29.7355],[80.8397,29.6872],[80.7546,29.708],[80.6891,29.7052],[80.6515,29.6812],[80.5736,29.6875],[80.4969,29.6247],[80.4089,29.605],[80.4164,29.6518],[80.3848,29.6741],[80.3642,29.7401],[80.3976,29.7593],[80.407,29.7945],[80.4934,29.7955],[80.5528,29.8504],[80.5953,29.9529],[80.6742,29.9572],[80.7447,30.004],[80.7613,30.0495],[80.8778,30.1288],[80.8629,30.1689],[80.8973,30.2123],[80.9896,30.2463]]]}},{"type":"Feature","properties":{"id":"dhading","en":"Dhading","ne":"धादिङ","province":"bagmati"},"geometry":{"type":"Polygon","coordinates":[[[85.1084,28.3454],[85.1598,28.3319],[85.1773,28.3059],[85.2026,28.2502],[85.1875,28.2233],[85.2,28.1768],[85.1149,28.0768],[85.0622,28.067],[85.0327,28.032],[84.9893,28.0287],[85.0317,27.9895],[84.989,27.8585],[85.0229,27.833],[85.0124,27.8095],[85.0415,27.8173],[85.1246,27.7607],[85.2526,27.7757],[85.2672,27.7457],[85.2137,27.7371],[85.1887,27.6814],[85.1498,27.6696],[85.0888,27.7123],[85.0427,27.6902],[85.0113,27.7078],[84.9515,27.6835],[84.9073,27.6986],[84.8799,27.6688],[84.8288,27.6925],[84.8001,27.6714],[84.7861,27.692],[84.7965,27.7092],[84.7575,27.7357],[84.6746,27.7307],[84.6748,27.7786],[84.6379,27.783],[84.6456,27.8001],[84.6217,27.8154],[84.6657,27.8253],[84.7308,27.7956],[84.7824,27.8139],[84.7358,27.8929],[84.7459,27.9601],[84.8113,28.0029],[84.8437,28.1163],[84.8694,28.1205],[84.8924,28.1],[84.9569,28.1268],[84.9647,28.2174],[85.0279,28.2624],[85.0467,28.3259],[85.1084,28.3454]]]}},{"type":"Feature","properties":{"id":"dhankuta","en":"Dhankuta","ne":"धनकुटा","province":"koshi"},"geometry":{"type":"Polygon","coordinates":[[[87.3576,27.1902],[87.4068,27.1364],[87.392,27.1025],[87.4412,27.0062],[87.4385,26.9715],[87.4916,26.9856],[87.5246,26.9605],[87.5222,26.8849],[87.5597,26.8849],[87.5757,26.8574],[87.4214,26.8705],[87.3674,26.8457],[87.2969,26.8749],[87.2336,26.8788],[87.216,26.8634],[87.1648,26.8779],[87.1483,26.9378],[87.1971,27.0004],[87.1832,27.0745],[87.2711,27.1431],[87.2647,27.1823],[87.3576,27.1902]]]}},{"type":"Feature","properties":{"id":"dhanusha","en":"Dhanusha","ne":"धनुषा","province":"madhesh"},"geometry":{"type":"Polygon","coordinates":[[[85.9141,27.1297],[85.9381,27.1214],[85.9917,27.0248],[86.1064,27.0152],[86.2579,26.9284],[86.221,26.8885],[86.1571,26.9353],[86.1325,26.915],[86.1552,26.8449],[86.1477,26.7709],[86.2002,26.6848],[86.151,26.6378],[86.1425,26.6051],[86.1385,26.629],[86.027,26.6667],[85.9602,26.6514],[85.948,26.6136],[85.8491,26.569],[85.8522,26.6153],[85.9058,26.6561],[85.8798,26.7523],[85.9087,26.7854],[85.9198,26.8464],[85.9167,26.8713],[85.8951,26.8776],[85.927,27.029],[85.914,27.0377],[85.9453,27.0616],[85.9369,27.0968],[85.9009,27.127],[85.9141,27.1297]]]}},{"type":"Feature","properties":{"id":"dolakha","en":"Dolakha","ne":"दोलखा","province":"bagmati"},"geometry":{"type":"Polygon","coordinates":[[[86.1972,28.1383],[86.2198,28.1117],[86.2042,28.084],[86.2332,27.9742],[86.2888,27.9784],[86.3188,27.9479],[86.3353,27.9651],[86.3479,27.9376],[86.3813,27.9379],[86.4108,27.9066],[86.4425,27.9057],[86.4694,27.9462],[86.5156,27.9566],[86.5487,27.9289],[86.5541,27.8571],[86.5381,27.8074],[86.4867,27.8089],[86.45,27.8325],[86.4197,27.8135],[86.4206,27.7156],[86.3393,27.6833],[86.2888,27.6034],[86.1919,27.572],[86.114,27.4741],[86.0935,27.5003],[85.9947,27.5036],[85.9977,27.546],[85.9523,27.5891],[85.8844,27.6141],[85.9392,27.6692],[85.9363,27.709],[85.961,27.7422],[86.0303,27.7423],[86.0025,27.8302],[86.0665,27.9111],[86.124,27.9276],[86.0794,28.0204],[86.0949,28.0619],[86.0828,28.0909],[86.1302,28.1001],[86.1781,28.1436],[86.1773,28.1707],[86.1972,28.1383]]]}},{"type":"Feature","properties":{"id":"dolpa","en":"Dolpa","ne":"डोल्पा","province":"karnali"},"geometry":{"type":"Polygon","coordinates":[[[82.9166,29.7062],[82.9481,29.6921],[82.9561,29.6624],[83.0086,29.6726],[83.0857,29.6028],[83.1204,29.6286],[83.1501,29.6239],[83.1591,29.5964],[83.1968,29.6112],[83.232,29.5779],[83.2779,29.569],[83.2822,29.5576],[83.2554,29.5568],[83.2675,29.5075],[83.3445,29.4948],[83.3424,29.4659],[83.3715,29.4286],[83.4143,29.4209],[83.4152,29.3591],[83.445,29.3403],[83.4384,29.3087],[83.4653,29.2746],[83.4873,29.2802],[83.5148,29.2559],[83.5197,29.2177],[83.6334,29.1585],[83.6659,29.1701],[83.6804,29.1235],[83.6156,29.0984],[83.6315,29.065],[83.6126,29.036],[83.615,28.9878],[83.5921,28.9837],[83.4995,28.8773],[83.5018,28.8462],[83.4803,28.8378],[83.4835,28.7829],[83.3885,28.7631],[83.362,28.7342],[83.2769,28.722],[83.2293,28.7429],[83.1137,28.7436],[83.0793,28.7862],[82.9809,28.8008],[82.9472,28.829],[82.8171,28.8313],[82.7658,28.8086],[82.7426,28.8453],[82.6957,28.8647],[82.6998,28.9085],[82.6662,28.9634],[82.5243,29.0145],[82.485,29.0149],[82.4569,28.9898],[82.3973,29.0045],[82.4171,29.1362],[82.4466,29.1578],[82.5145,29.1564],[82.5785,29.18],[82.531,29.2501],[82.5907,29.3031],[82.5481,29.3803],[82.5585,29.4115],[82.6233,29.4246],[82.6421,29.3854],[82.7146,29.4315],[82.7353,29.4679],[82.7318,29.5077],[82.7816,29.5144],[82.8192,29.5595],[82.7943,29.6316],[82.827,29.6491],[82.8271,29.6898],[82.9166,29.7062]]]}},{"type":"Feature","properties":{"id":"doti","en":"Doti","ne":"डोटी","province":"sudurpaschim"},"geometry":{"type":"Polygon","coordinates":[[[80.929,29.4208],[80.9395,29.3976],[81.0226,29.4219],[81.144,29.3909],[81.186,29.4049],[81.1534,29.382],[81.1357,29.3049],[81.1,29.2614],[81.1135,29.2275],[81.0267,29.1953],[81.1286,29.0813],[81.1502,29.0061],[81.132,28.9811],[81.1006,28.9638],[81.0488,28.9782],[80.9811,28.9388],[80.9115,28.931],[80.8557,28.9777],[80.8207,28.9307],[80.8031,28.9724],[80.7616,29.0028],[80.6566,29.0221],[80.617,29.0588],[80.5968,29.0482],[80.5315,29.0897],[80.5266,29.1058],[80.5666,29.1189],[80.566,29.1436],[80.5912,29.148],[80.5984,29.1702],[80.7045,29.1924],[80.7068,29.2314],[80.7568,29.2676],[80.7342,29.2987],[80.7725,29.3019],[80.7629,29.3636],[80.8507,29.3767],[80.8521,29.4076],[80.9118,29.4457],[80.929,29.4208]]]}},{"type":"Feature","properties":{"id":"gorkha","en":"Gorkha","ne":"गोरखा","province":"gandaki"},"geometry":{"type":"Polygon","coordinates":[[[84.557,28.7514],[84.6436,28.7253],[84.6683,28.6835],[84.705,28.6711],[84.6948,28.6365],[84.8571,28.5706],[84.901,28.5933],[84.9449,28.5949],[84.9489,28.5802],[84.9834,28.5914],[85.0586,28.6825],[85.0839,28.671],[85.1154,28.6866],[85.198,28.6267],[85.1737,28.5975],[85.1865,28.5336],[85.1661,28.5321],[85.1529,28.4906],[85.1185,28.4856],[85.0995,28.4569],[85.1266,28.3924],[85.108,28.3466],[85.0467,28.3259],[85.0279,28.2624],[84.9647,28.2174],[84.9569,28.1268],[84.8924,28.1],[84.8694,28.1205],[84.8437,28.1163],[84.8113,28.0029],[84.7459,27.9601],[84.7358,27.8929],[84.7824,27.8139],[84.7319,27.7957],[84.668,27.8185],[84.6244,27.8799],[84.5481,27.8626],[84.5385,27.9175],[84.5015,27.9156],[84.4206,27.9587],[84.4871,28.0622],[84.4782,28.0891],[84.5408,28.0997],[84.6332,28.1894],[84.6464,28.2931],[84.6948,28.361],[84.6374,28.4392],[84.5654,28.4857],[84.52,28.6945],[84.4819,28.7185],[84.5023,28.7443],[84.557,28.7514]]]}},{"type":"Feature","properties":{"id":"gulmi","en":"Gulmi","ne":"गुल्मी","province":"lumbini"},"geometry":{"type":"Polygon","coordinates":[[[83.1676,28.2581],[83.185,28.2707],[83.2739,28.1876],[83.3555,28.1975],[83.4233,28.1252],[83.554,28.1174],[83.5807,28.0776],[83.561,28.0644],[83.5616,28.0358],[83.5964,28.0207],[83.6033,27.9973],[83.531,27.9648],[83.4832,27.9818],[83.4407,27.9355],[83.3995,27.9348],[83.3775,27.9589],[83.3454,27.9499],[83.3375,27.9227],[83.2808,27.9263],[83.3009,27.9678],[83.2525,27.987],[83.2299,28.0484],[83.193,28.0829],[83.1384,28.062],[83.1254,28.0845],[83.1023,28.0772],[83.0993,28.0943],[83.0732,28.0908],[83.051,28.1116],[83.0569,28.1453],[83.0295,28.1749],[83.022,28.2351],[83.0778,28.2337],[83.0936,28.257],[83.1308,28.2502],[83.1555,28.2709],[83.1676,28.2581]]]}},{"type":"Feature","properties":{"id":"humla","en":"Humla","ne":"हुम्ला","province":"karnali"},"geometry":{"type":"Polygon","coordinates":[[[81.6263,30.4459],[81.7511,30.3888],[81.8677,30.3773],[81.9145,30.35],[81.9493,30.3589],[81.9884,30.3208],[82.0163,30.3442],[82.056,30.3326],[82.0738,30.3588],[82.1093,30.3462],[82.1283,30.3022],[82.0984,30.2392],[82.1391,30.1989],[82.1845,30.1908],[82.1821,30.1609],[82.2056,30.1536],[82.1708,30.122],[82.1866,30.1109],[82.1717,30.0655],[82.2467,30.0752],[82.2985,30.0379],[82.3341,30.0469],[82.363,30.0104],[82.3955,30.024],[82.4976,29.9474],[82.4476,29.8887],[82.4616,29.8637],[82.435,29.8608],[82.4384,29.8156],[82.4009,29.8054],[82.411,29.714],[82.3902,29.6959],[82.3396,29.7159],[82.282,29.6923],[82.2318,29.7005],[82.2344,29.6628],[82.1028,29.6348],[82.1013,29.6863],[82.0453,29.751],[81.9468,29.6752],[81.8898,29.6675],[81.853,29.6194],[81.7901,29.6274],[81.7505,29.6049],[81.7158,29.6209],[81.6974,29.6809],[81.7398,29.7925],[81.7804,29.8071],[81.7992,29.9017],[81.716,29.9094],[81.6878,29.9491],[81.6456,29.9482],[81.5169,29.9228],[81.504,29.8929],[81.4707,29.8898],[81.4529,29.949],[81.4687,29.9637],[81.4632,29.9956],[81.4013,30.0228],[81.3571,30.0106],[81.272,30.0453],[81.2905,30.1125],[81.2563,30.1465],[81.3049,30.1643],[81.3321,30.1532],[81.3965,30.209],[81.392,30.2505],[81.4166,30.2817],[81.4019,30.2931],[81.4233,30.3051],[81.3964,30.3234],[81.3953,30.3679],[81.4293,30.3834],[81.4007,30.3962],[81.4081,30.4211],[81.5518,30.3698],[81.5608,30.428],[81.6068,30.4122],[81.6263,30.4459]]]}},{"type":"Feature","properties":{"id":"ilam","en":"Ilam","ne":"इलाम","province":"koshi"},"geometry":{"type":"Polygon","coordinates":[[[87.9548,27.1046],[88.0034,27.1045],[88.0376,27.0367],[88.0776,27.0354],[88.0923,27.0046],[88.1355,26.9849],[88.1205,26.9505],[88.146,26.9211],[88.1364,26.8987],[88.1735,26.8655],[88.1849,26.7832],[88.1505,26.8059],[88.1451,26.7695],[88.1313,26.7783],[88.1116,26.746],[88.0923,26.8016],[88.0672,26.7917],[88.0462,26.7453],[88.0268,26.7783],[88.008,26.7672],[88.0045,26.7801],[87.9813,26.7525],[87.9647,26.7899],[87.9502,26.7286],[87.9273,26.7159],[87.9339,26.6888],[87.8671,26.6922],[87.866,26.6717],[87.8145,26.6941],[87.7908,26.6663],[87.7651,26.6653],[87.7074,26.6957],[87.6904,26.7567],[87.6631,26.7608],[87.6792,26.7815],[87.656,26.7983],[87.6615,26.8149],[87.5996,26.8622],[87.6883,26.8811],[87.7063,26.9293],[87.6772,26.9521],[87.7395,27.0197],[87.778,27.0129],[87.8955,27.0926],[87.9548,27.1046]]]}},{"type":"Feature","properties":{"id":"jajarkot","en":"Jajarkot","ne":"जाजरकोट","province":"karnali"},"geometry":{"type":"Polygon","coordinates":[[[82.284,29.1222],[82.4118,29.0956],[82.3988,29.0029],[82.4578,28.9899],[82.5065,29.0158],[82.5802,28.9905],[82.552,28.9878],[82.5133,28.95],[82.4968,28.8787],[82.4003,28.842],[82.3576,28.792],[82.2943,28.7851],[82.28,28.6943],[82.2474,28.7124],[82.2091,28.676],[82.1971,28.6833],[82.1902,28.6283],[82.1687,28.6118],[82.1383,28.6266],[82.0823,28.6182],[82.0564,28.6447],[81.8778,28.6484],[81.859,28.6934],[81.8201,28.7241],[81.9123,28.7801],[81.8784,28.8491],[81.8939,28.9008],[81.9245,28.9249],[81.9197,28.9777],[81.9583,28.9856],[82.0078,29.0307],[82.0393,29.012],[82.0498,28.9808],[82.0953,28.9744],[82.1675,29.0693],[82.1806,29.0619],[82.2255,29.1047],[82.284,29.1222]]]}},{"type":"Feature","properties":{"id":"jhapa","en":"Jhapa","ne":"झापा","province":"koshi"},"geometry":{"type":"Polygon","coordinates":[[[88.1523,26.8059],[88.188,26.7717],[88.1605,26.6367],[88.1299,26.6014],[88.1301,26.5736],[88.1054,26.561],[88.0956,26.4393],[88.0343,26.3922],[88.0299,26.365],[87.9954,26.3662],[87.9916,26.3927],[87.9272,26.418],[87.8881,26.4868],[87.8487,26.4366],[87.7868,26.4683],[87.776,26.4215],[87.7538,26.4083],[87.6754,26.4362],[87.6586,26.4588],[87.6357,26.5807],[87.6554,26.6159],[87.6423,26.6665],[87.6551,26.7159],[87.6872,26.75],[87.7078,26.6953],[87.7651,26.6653],[87.7908,26.6663],[87.8145,26.6941],[87.8666,26.6717],[87.8671,26.6922],[87.9339,26.6888],[87.9273,26.7159],[87.9502,26.7286],[87.9647,26.7899],[87.9813,26.7525],[88.0045,26.7801],[88.008,26.7672],[88.0268,26.7783],[88.0465,26.7453],[88.0672,26.7917],[88.0928,26.8015],[88.1116,26.746],[88.1313,26.7783],[88.1451,26.7695],[88.1523,26.8059]]]}},{"type":"Feature","properties":{"id":"jumla","en":"Jumla","ne":"जुम्ला","province":"karnali"},"geometry":{"type":"Polygon","coordinates":[[[82.3287,29.5079],[82.3636,29.4904],[82.3863,29.5016],[82.4324,29.4434],[82.4981,29.4915],[82.513,29.4207],[82.5585,29.4115],[82.5481,29.3803],[82.5905,29.3266],[82.5907,29.3031],[82.531,29.2501],[82.5785,29.18],[82.5145,29.1564],[82.4463,29.1577],[82.4171,29.1362],[82.4118,29.0956],[82.2782,29.1275],[82.1806,29.0619],[82.1675,29.0693],[82.0953,28.9744],[82.0498,28.9808],[82.0113,29.0305],[82.0171,29.0921],[81.9479,29.1293],[81.9441,29.1495],[81.9037,29.1573],[81.9089,29.2058],[81.8499,29.2445],[81.8479,29.2664],[81.8794,29.2728],[81.9303,29.3329],[81.9288,29.4334],[81.9644,29.4458],[81.9791,29.473],[82.0143,29.4615],[82.0769,29.4838],[82.102,29.4587],[82.131,29.4699],[82.1611,29.417],[82.2138,29.4069],[82.2397,29.4389],[82.2944,29.4428],[82.3005,29.4941],[82.3287,29.5079]]]}},{"type":"Feature","properties":{"id":"kavrepalanchok","en":"Kavrepalanchok","ne":"काभ्रेपलाञ्चोक","province":"bagmati"},"geometry":{"type":"Polygon","coordinates":[[[85.5498,27.756],[85.6039,27.7488],[85.6658,27.7124],[85.706,27.6417],[85.7347,27.6767],[85.8126,27.6691],[85.8174,27.6441],[85.881,27.6146],[85.8267,27.5759],[85.8189,27.5179],[85.7975,27.5003],[85.8215,27.451],[85.7908,27.4434],[85.7735,27.3982],[85.7144,27.4064],[85.6893,27.3371],[85.6506,27.3336],[85.6352,27.3536],[85.56,27.3394],[85.5143,27.3504],[85.4094,27.417],[85.4067,27.4475],[85.4415,27.4761],[85.4428,27.516],[85.4369,27.5416],[85.3874,27.5621],[85.4025,27.6021],[85.4254,27.5935],[85.4357,27.6083],[85.4205,27.6202],[85.454,27.6371],[85.4633,27.6255],[85.4934,27.6524],[85.5252,27.7366],[85.5498,27.756]]]}},{"type":"Feature","properties":{"id":"kailali","en":"Kailali","ne":"कैलाली","province":"sudurpaschim"},"geometry":{"type":"Polygon","coordinates":[[[80.566,29.0622],[80.5985,29.0478],[80.6167,29.0589],[80.6638,29.0198],[80.7616,29.0028],[80.8031,28.9724],[80.8168,28.9316],[80.8589,28.9771],[80.8945,28.9344],[81.0075,28.9275],[81.1024,28.8448],[81.1429,28.8732],[81.1549,28.8291],[81.2051,28.8175],[81.2024,28.8637],[81.2337,28.8299],[81.2423,28.8099],[81.2259,28.7952],[81.2728,28.7262],[81.2876,28.648],[81.1602,28.5015],[81.0906,28.457],[81.0596,28.41],[81.0674,28.3945],[81.0211,28.4104],[81.0338,28.428],[81.0175,28.4517],[80.9654,28.4378],[80.9799,28.4553],[80.9157,28.4577],[80.8962,28.5057],[80.8616,28.5042],[80.8656,28.4896],[80.7891,28.5244],[80.768,28.5657],[80.7147,28.5679],[80.6903,28.5871],[80.6677,28.6419],[80.5898,28.6478],[80.5905,28.6798],[80.5427,28.6964],[80.5387,28.7161],[80.5595,28.7227],[80.5382,28.7387],[80.5569,28.7533],[80.5358,28.7679],[80.5503,28.7779],[80.4965,28.8549],[80.5107,28.9214],[80.4682,28.9388],[80.4853,28.9979],[80.519,28.9993],[80.566,29.0622]]]}},{"type":"Feature","properties":{"id":"kalikot","en":"Kalikot","ne":"कालिकोट","province":"karnali"},"geometry":{"type":"Polygon","coordinates":[[[81.8483,29.4607],[81.9309,29.4374],[81.9303,29.3329],[81.8794,29.2728],[81.8479,29.2664],[81.8499,29.2445],[81.9089,29.2058],[81.9037,29.1573],[81.9441,29.1495],[81.9479,29.1293],[82.0171,29.0921],[82.0117,29.0296],[81.958,28.9855],[81.8648,28.971],[81.7829,29.0176],[81.7159,29.0201],[81.6906,29.0497],[81.6134,29.0335],[81.5637,29.0537],[81.5808,29.1356],[81.5536,29.1283],[81.4991,29.1518],[81.4821,29.2006],[81.4996,29.2389],[81.4681,29.2719],[81.5818,29.3648],[81.6347,29.3644],[81.6477,29.3215],[81.6685,29.3171],[81.7397,29.334],[81.7611,29.3866],[81.7893,29.389],[81.8053,29.4527],[81.8483,29.4607]]]}},{"type":"Feature","properties":{"id":"kanchanpur","en":"Kanchanpur","ne":"कञ्चनपुर","province":"sudurpaschim"},"geometry":{"type":"Polygon","coordinates":[[[80.1869,29.1273],[80.186,29.0872],[80.2277,29.0456],[80.3127,29.0583],[80.4203,29.0265],[80.4597,29.0375],[80.4782,29.0181],[80.4718,28.9968],[80.4899,28.983],[80.4682,28.9387],[80.5107,28.9214],[80.4965,28.8549],[80.5501,28.7784],[80.5411,28.7563],[80.5569,28.7539],[80.5382,28.7387],[80.5595,28.7229],[80.5383,28.7147],[80.5543,28.6908],[80.5036,28.6653],[80.5228,28.5529],[80.4686,28.5831],[80.4517,28.6287],[80.3608,28.6356],[80.3174,28.6999],[80.2563,28.7294],[80.2516,28.7574],[80.2162,28.7554],[80.1182,28.8288],[80.0648,28.8374],[80.0586,28.9165],[80.1003,28.9865],[80.118,28.9817],[80.1357,29.0073],[80.1445,29.103],[80.1869,29.1273]]]}},{"type":"Feature","properties":{"id":"kapilbastu","en":"Kapilbastu","ne":"कपिलवस्तु","province":"lumbini"},"geometry":{"type":"Polygon","coordinates":[[[83.0166,27.8096],[83.0525,27.7567],[83.0934,27.783],[83.1216,27.7618],[83.2124,27.7592],[83.2317,27.6095],[83.2043,27.5599],[83.2331,27.5142],[83.2218,27.4185],[83.1879,27.4545],[83.0342,27.4489],[82.9543,27.468],[82.9295,27.5012],[82.7352,27.503],[82.7559,27.5878],[82.7118,27.6651],[82.6962,27.7567],[82.7352,27.7761],[82.7981,27.7739],[82.8043,27.7951],[82.9299,27.7844],[83.0166,27.8096]]]}},{"type":"Feature","properties":{"id":"kaski","en":"Kaski","ne":"कास्की","province":"gandaki"},"geometry":{"type":"Polygon","coordinates":[[[83.8745,28.6133],[83.964,28.6052],[84.0853,28.5385],[84.1374,28.5394],[84.1891,28.4892],[84.2787,28.4709],[84.215,28.394],[84.1869,28.2919],[84.211,28.2656],[84.2104,28.212],[84.1907,28.1961],[84.2188,28.1809],[84.226,28.0959],[84.1051,28.1105],[84.0697,28.0777],[84.0477,28.0842],[83.9801,28.1434],[83.9303,28.144],[83.8909,28.1946],[83.8168,28.2101],[83.7984,28.2286],[83.8207,28.2602],[83.7656,28.2739],[83.7745,28.3091],[83.7006,28.3986],[83.7593,28.3937],[83.7319,28.4203],[83.7523,28.472],[83.8287,28.5343],[83.8019,28.58],[83.8745,28.6133]]]}},{"type":"Feature","properties":{"id":"kathmandu","en":"Kathmandu","ne":"काठमाडौं","province":"bagmati"},"geometry":{"type":"Polygon","coordinates":[[[85.4505,27.8136],[85.473,27.778],[85.5335,27.7919],[85.5642,27.7551],[85.5383,27.7548],[85.5251,27.7256],[85.4215,27.7239],[85.352,27.668],[85.3037,27.6924],[85.2824,27.6439],[85.2918,27.5975],[85.2666,27.5707],[85.2419,27.5787],[85.2219,27.6289],[85.2332,27.6498],[85.1886,27.6809],[85.2135,27.737],[85.2672,27.7457],[85.2516,27.775],[85.2975,27.8122],[85.4505,27.8136]]]}},{"type":"Feature","properties":{"id":"khotang","en":"Khotang","ne":"खोटाङ","province":"koshi"},"geometry":{"type":"Polygon","coordinates":[[[86.8351,27.4309],[86.906,27.4335],[86.9316,27.3573],[86.9853,27.3083],[86.9482,27.2662],[86.8951,27.2498],[86.9297,27.2032],[86.9172,27.129],[86.8948,27.115],[86.9631,27.0614],[86.9447,27.0204],[86.9671,27.0075],[86.9571,26.9854],[86.973,26.9573],[86.9516,26.9046],[86.8069,26.8726],[86.7717,26.8853],[86.7472,27.0244],[86.6688,27.1201],[86.5813,27.1525],[86.4658,27.1024],[86.4263,27.1341],[86.4472,27.1642],[86.5253,27.1927],[86.557,27.2269],[86.6187,27.235],[86.669,27.2695],[86.6672,27.2976],[86.6861,27.3102],[86.6812,27.3907],[86.7518,27.3945],[86.8209,27.44],[86.8351,27.4309]]]}},{"type":"Feature","properties":{"id":"lalitpur","en":"Lalitpur","ne":"ललितपुर","province":"bagmati"},"geometry":{"type":"Polygon","coordinates":[[[85.321,27.6871],[85.4357,27.6083],[85.4242,27.593],[85.4025,27.6021],[85.3869,27.5631],[85.4405,27.5318],[85.4434,27.4802],[85.4067,27.4475],[85.4142,27.4049],[85.2635,27.455],[85.234,27.505],[85.2512,27.5282],[85.2316,27.5372],[85.2945,27.6042],[85.2917,27.6729],[85.3037,27.6924],[85.321,27.6871]]]}},{"type":"Feature","properties":{"id":"lamjung","en":"Lamjung","ne":"लमजुङ","province":"gandaki"},"geometry":{"type":"Polygon","coordinates":[[[84.4418,28.5103],[84.4907,28.4616],[84.5831,28.4771],[84.6374,28.4392],[84.6946,28.3616],[84.6464,28.2931],[84.64,28.2033],[84.5422,28.1007],[84.4782,28.0891],[84.482,28.0556],[84.3957,28.1298],[84.3295,28.1241],[84.2319,28.0789],[84.2188,28.1809],[84.1907,28.1961],[84.2129,28.2283],[84.211,28.2656],[84.1868,28.2915],[84.214,28.3921],[84.269,28.4566],[84.3981,28.4566],[84.4418,28.5103]]]}},{"type":"Feature","properties":{"id":"mahottari","en":"Mahottari","ne":"महोत्तरी","province":"madhesh"},"geometry":{"type":"Polygon","coordinates":[[[85.8272,27.1676],[85.8625,27.1272],[85.8829,27.1464],[85.9056,27.1339],[85.9453,27.0616],[85.914,27.0377],[85.927,27.029],[85.8951,26.8776],[85.9167,26.8713],[85.9198,26.8464],[85.9087,26.7854],[85.8798,26.7523],[85.9055,26.6538],[85.8304,26.6017],[85.7342,26.6506],[85.7344,26.7959],[85.6762,26.8645],[85.7097,26.9042],[85.7477,27.0346],[85.7977,27.0951],[85.7934,27.1376],[85.8272,27.1676]]]}},{"type":"Feature","properties":{"id":"makwanpur","en":"Makwanpur","ne":"मकवानपुर","province":"bagmati"},"geometry":{"type":"Polygon","coordinates":[[[85.0905,27.7119],[85.1415,27.6714],[85.1885,27.6815],[85.2332,27.6499],[85.2227,27.6262],[85.2398,27.5811],[85.2631,27.5709],[85.2316,27.5372],[85.2512,27.5282],[85.234,27.505],[85.2588,27.4583],[85.3849,27.408],[85.4324,27.4103],[85.4784,27.3775],[85.4182,27.3212],[85.4373,27.2842],[85.4806,27.2682],[85.4881,27.2204],[85.5041,27.2217],[85.5104,27.1981],[85.4884,27.1982],[85.4891,27.1659],[85.4561,27.1666],[85.3935,27.2104],[85.1791,27.2485],[85.1264,27.2929],[85.0851,27.3617],[84.9262,27.3642],[84.7909,27.4378],[84.6648,27.4295],[84.6968,27.4754],[84.68,27.5516],[84.7098,27.562],[84.7383,27.6036],[84.7174,27.6375],[84.7316,27.6559],[84.7672,27.6566],[84.7922,27.687],[84.8001,27.6714],[84.8294,27.6925],[84.8799,27.6688],[84.9073,27.6986],[84.9515,27.6835],[84.9901,27.7079],[85.0386,27.7058],[85.0427,27.6902],[85.0905,27.7119]]]}},{"type":"Feature","properties":{"id":"manang","en":"Manang","ne":"मनाङ","province":"gandaki"},"geometry":{"type":"Polygon","coordinates":[[[84.187,28.8996],[84.2656,28.8978],[84.3236,28.8627],[84.3431,28.873],[84.4092,28.8534],[84.4006,28.8303],[84.4353,28.8209],[84.4454,28.7932],[84.4366,28.7694],[84.4808,28.7467],[84.4819,28.7185],[84.52,28.6945],[84.5126,28.6736],[84.5427,28.6273],[84.5475,28.5546],[84.5706,28.5101],[84.564,28.4783],[84.4907,28.4616],[84.4325,28.5102],[84.3981,28.4566],[84.2805,28.4465],[84.2665,28.4804],[84.1891,28.4892],[84.1374,28.5394],[84.0853,28.5385],[83.9638,28.6053],[83.8716,28.6133],[83.8498,28.6538],[83.7893,28.6933],[83.8912,28.7438],[83.8973,28.7706],[83.9389,28.7885],[83.9504,28.8348],[84.0148,28.7976],[84.0518,28.8426],[84.0849,28.8496],[84.0958,28.8874],[84.1576,28.8723],[84.187,28.8996]]]}},{"type":"Feature","properties":{"id":"morang","en":"Morang","ne":"मोरङ","province":"koshi"},"geometry":{"type":"Polygon","coordinates":[[[87.5071,26.8705],[87.5093,26.8576],[87.5996,26.8622],[87.6615,26.8149],[87.656,26.7983],[87.6792,26.7815],[87.6632,26.7607],[87.6904,26.7567],[87.6548,26.7154],[87.6415,26.6541],[87.6554,26.6159],[87.6357,26.5807],[87.6783,26.4159],[87.5871,26.3822],[87.5475,26.4186],[87.4666,26.4405],[87.3687,26.4082],[87.341,26.3478],[87.3123,26.3716],[87.2659,26.374],[87.2661,26.4057],[87.2426,26.4183],[87.246,26.5212],[87.2913,26.5766],[87.3013,26.6296],[87.285,26.6575],[87.3393,26.7366],[87.3235,26.787],[87.3475,26.8497],[87.5071,26.8705]]]}},{"type":"Feature","properties":{"id":"mugu","en":"Mugu","ne":"मुगु","province":"karnali"},"geometry":{"type":"Polygon","coordinates":[[[82.5646,29.9462],[82.6024,29.8891],[82.6425,29.8702],[82.621,29.8373],[82.6972,29.8554],[82.7266,29.8353],[82.7371,29.8136],[82.6941,29.7912],[82.6901,29.7632],[82.7522,29.7656],[82.7629,29.7312],[82.8179,29.7212],[82.8271,29.6898],[82.827,29.6491],[82.7943,29.6316],[82.8192,29.5595],[82.7816,29.5144],[82.7319,29.5078],[82.7353,29.4679],[82.7148,29.4317],[82.6524,29.3909],[82.6242,29.3979],[82.6231,29.4247],[82.5131,29.4205],[82.4959,29.4936],[82.4324,29.4434],[82.3859,29.5018],[82.3636,29.4904],[82.3169,29.5066],[82.2939,29.4425],[82.2397,29.4389],[82.2138,29.4069],[82.1841,29.4062],[82.1436,29.4292],[82.131,29.4699],[82.102,29.4587],[82.0818,29.483],[82.0412,29.4828],[82.0143,29.4615],[81.9791,29.473],[81.9644,29.4458],[81.9309,29.4374],[81.8668,29.4607],[81.8077,29.454],[81.788,29.5],[81.7625,29.5054],[81.7806,29.5092],[81.7989,29.5583],[81.7738,29.6058],[81.7848,29.6248],[81.853,29.6194],[81.8898,29.6675],[81.9468,29.6752],[82.0355,29.7492],[82.0603,29.7462],[82.1013,29.6863],[82.1028,29.6348],[82.2344,29.6628],[82.2318,29.7005],[82.282,29.6923],[82.3396,29.7159],[82.3927,29.6966],[82.4143,29.732],[82.4009,29.8054],[82.4387,29.8159],[82.435,29.8608],[82.4626,29.8654],[82.4476,29.8887],[82.5293,29.971],[82.5646,29.9462]]]}},{"type":"Feature","properties":{"id":"mustang","en":"Mustang","ne":"मुस्ताङ","province":"gandaki"},"geometry":{"type":"Polygon","coordinates":[[[83.9636,29.3311],[84.0158,29.289],[84.0439,29.3009],[84.1201,29.2798],[84.1163,29.2442],[84.201,29.2401],[84.1997,29.214],[84.1623,29.1853],[84.1748,29.1309],[84.201,29.124],[84.1897,29.047],[84.2479,29.0373],[84.2259,28.894],[84.1844,28.9003],[84.1576,28.8723],[84.0958,28.8874],[84.0849,28.8496],[84.0518,28.8426],[84.0147,28.7975],[83.9504,28.8348],[83.9389,28.7885],[83.8973,28.7706],[83.872,28.7271],[83.7445,28.6902],[83.6634,28.567],[83.5797,28.5835],[83.5276,28.6885],[83.5556,28.7661],[83.4869,28.7906],[83.4803,28.8378],[83.5018,28.8462],[83.4995,28.8773],[83.589,28.9808],[83.615,28.9878],[83.6126,29.036],[83.6315,29.065],[83.6156,29.0984],[83.6804,29.1235],[83.6559,29.204],[83.7113,29.2446],[83.7973,29.2501],[83.8128,29.3021],[83.9636,29.3311]]]}},{"type":"Feature","properties":{"id":"myagdi","en":"Myagdi","ne":"म्याग्दी","province":"gandaki"},"geometry":{"type":"Polygon","coordinates":[[[83.5062,28.7902],[83.5561,28.7646],[83.5276,28.6885],[83.5797,28.5835],[83.6634,28.567],[83.7445,28.6902],[83.8119,28.6827],[83.8713,28.615],[83.8019,28.58],[83.8287,28.5343],[83.7523,28.472],[83.7319,28.4203],[83.7593,28.3937],[83.688,28.3988],[83.6581,28.3481],[83.5974,28.3916],[83.5697,28.3745],[83.5683,28.3411],[83.6012,28.2982],[83.4435,28.3288],[83.3636,28.3707],[83.3023,28.356],[83.2788,28.3675],[83.2968,28.4158],[83.2726,28.4421],[83.3005,28.4614],[83.2739,28.4936],[83.2195,28.5139],[83.1312,28.4962],[83.1257,28.5278],[83.1015,28.5414],[83.1187,28.6726],[83.1526,28.7012],[83.1454,28.7472],[83.2769,28.722],[83.362,28.7342],[83.3885,28.7631],[83.5062,28.7902]]]}},{"type":"Feature","properties":{"id":"nawalparasi-east","en":"Nawalparasi East","ne":"नवलपरासी पूर्व","province":"gandaki"},"geometry":{"type":"Polygon","coordinates":[[[84.0946,27.8667],[84.1562,27.8397],[84.2022,27.8525],[84.2095,27.8388],[84.2916,27.8379],[84.3252,27.7487],[84.3917,27.7757],[84.4188,27.7578],[84.4307,27.7059],[84.3789,27.6813],[84.3437,27.7023],[84.2067,27.6388],[84.1147,27.5533],[84.0506,27.5565],[84.0312,27.5373],[83.9245,27.5446],[83.9256,27.5148],[83.9543,27.5276],[83.969,27.5107],[83.9388,27.4916],[83.9364,27.4518],[83.8956,27.4378],[83.8747,27.4894],[83.8977,27.4988],[83.8758,27.5105],[83.8824,27.5279],[83.8472,27.5604],[83.8361,27.5451],[83.8362,27.5858],[83.7899,27.6064],[83.8119,27.6624],[83.6954,27.6615],[83.7046,27.6829],[83.6771,27.7186],[83.7286,27.7092],[83.7823,27.7251],[83.8463,27.7095],[83.845,27.7351],[83.9242,27.7269],[83.99,27.7493],[84.0285,27.8565],[84.0946,27.8667]]]}},{"type":"Feature","properties":{"id":"nawalparasi-west","en":"Nawalparasi West","ne":"नवलपरासी पश्चिम","province":"lumbini"},"geometry":{"type":"Polygon","coordinates":[[[83.6352,27.6921],[83.706,27.6589],[83.7252,27.6725],[83.8119,27.6624],[83.7906,27.6051],[83.8359,27.5861],[83.8361,27.5451],[83.8507,27.5591],[83.8977,27.4988],[83.8747,27.4894],[83.8956,27.4378],[83.8674,27.4273],[83.8728,27.3924],[83.9057,27.3887],[83.8878,27.3584],[83.8626,27.3467],[83.6147,27.4696],[83.5867,27.5322],[83.5959,27.5728],[83.5718,27.6105],[83.6299,27.6648],[83.6352,27.6921]]]}},{"type":"Feature","properties":{"id":"nuwakot","en":"Nuwakot","ne":"नुवाकोट","province":"bagmati"},"geometry":{"type":"Polygon","coordinates":[[[85.1352,28.0841],[85.1705,28.0827],[85.133,28.0382],[85.1872,28.0192],[85.1835,27.9733],[85.2762,27.9652],[85.4035,28.0392],[85.4329,28.0807],[85.4702,28.0638],[85.4971,28.0204],[85.4785,27.9594],[85.4875,27.9198],[85.4473,27.8152],[85.3,27.8128],[85.2469,27.7726],[85.1248,27.7607],[85.0415,27.8173],[85.0124,27.8095],[85.0229,27.833],[84.9892,27.8582],[84.9888,27.8854],[85.0317,27.9895],[84.9893,28.0287],[85.0327,28.032],[85.0622,28.067],[85.1352,28.0841]]]}},{"type":"Feature","properties":{"id":"okhaldhunga","en":"Okhaldhunga","ne":"ओखलढुङ्गा","province":"koshi"},"geometry":{"type":"Polygon","coordinates":[[[86.3572,27.5245],[86.4015,27.517],[86.4399,27.4857],[86.4646,27.4285],[86.5026,27.4254],[86.5708,27.3408],[86.6786,27.3536],[86.6861,27.3102],[86.6672,27.2976],[86.669,27.2695],[86.6187,27.235],[86.557,27.2269],[86.5253,27.1927],[86.4281,27.1468],[86.3436,27.2029],[86.341,27.229],[86.2663,27.2611],[86.2301,27.2374],[86.2036,27.2503],[86.2406,27.2888],[86.2157,27.3336],[86.2279,27.3982],[86.2637,27.4562],[86.3572,27.5245]]]}},{"type":"Feature","properties":{"id":"palpa","en":"Palpa","ne":"पाल्पा","province":"lumbini"},"geometry":{"type":"Polygon","coordinates":[[[83.3783,27.9579],[83.41,27.931],[83.4839,27.9227],[83.5067,27.9405],[83.5237,27.9241],[83.571,27.9431],[83.6262,27.9261],[83.6343,27.8994],[83.6757,27.9275],[83.7189,27.9203],[83.841,27.8683],[83.8776,27.8884],[83.9248,27.8683],[83.9715,27.8727],[84.0285,27.8565],[84.0268,27.8206],[83.994,27.7512],[83.9242,27.7269],[83.845,27.7351],[83.8463,27.7095],[83.6786,27.7201],[83.7046,27.6829],[83.6953,27.6622],[83.5312,27.7261],[83.4441,27.7239],[83.3888,27.7489],[83.3711,27.7351],[83.3287,27.7675],[83.26,27.757],[83.231,27.8233],[83.2903,27.8283],[83.3006,27.8598],[83.3305,27.8752],[83.2975,27.9108],[83.3783,27.9579]]]}},{"type":"Feature","properties":{"id":"panchthar","en":"Panchthar","ne":"पाँचथर","province":"koshi"},"geometry":{"type":"Polygon","coordinates":[[[88.0745,27.4332],[88.0469,27.4055],[88.0418,27.3702],[88.0666,27.336],[88.0317,27.2863],[88.0194,27.1711],[87.9916,27.1055],[87.8955,27.0926],[87.778,27.0129],[87.7395,27.0197],[87.6772,26.9521],[87.7063,26.9293],[87.6882,26.8811],[87.5837,26.8599],[87.5597,26.8849],[87.5223,26.8848],[87.5264,26.9576],[87.4926,26.9854],[87.536,27.0136],[87.5369,27.0454],[87.5891,27.0996],[87.706,27.1505],[87.718,27.1876],[87.7515,27.2084],[87.681,27.2675],[87.6889,27.2886],[87.781,27.2727],[87.9504,27.2827],[88.0038,27.3291],[88.0374,27.4136],[88.0745,27.4332]]]}},{"type":"Feature","properties":{"id":"parbat","en":"Parbat","ne":"पर्वत","province":"gandaki"},"geometry":{"type":"Polygon","coordinates":[[[83.6995,28.3997],[83.7745,28.3091],[83.7656,28.2739],[83.8228,28.2513],[83.7994,28.2091],[83.7563,28.1903],[83.7595,28.1462],[83.7088,28.1304],[83.73,28.1015],[83.7036,28.0903],[83.7127,28.0637],[83.6945,28.028],[83.6268,28.0055],[83.5619,28.0354],[83.5609,28.0642],[83.63,28.1229],[83.6395,28.1748],[83.6742,28.2186],[83.61,28.2591],[83.5667,28.3663],[83.5968,28.3918],[83.6625,28.349],[83.6995,28.3997]]]}},{"type":"Feature","properties":{"id":"parsa","en":"Parsa","ne":"पर्सा","province":"madhesh"},"geometry":{"type":"Polygon","coordinates":[[[84.5653,27.4632],[84.6283,27.4509],[84.6477,27.4291],[84.7909,27.4378],[84.9695,27.3563],[84.9576,27.3003],[84.9729,27.2642],[84.9447,27.164],[84.955,27.1269],[84.9242,27.0839],[84.9358,27.071],[84.9001,27.0461],[84.9113,27.0182],[84.8804,26.9893],[84.8561,26.9866],[84.8547,27.0083],[84.8256,27.021],[84.7936,26.9959],[84.7731,27.0179],[84.7568,27.0029],[84.6428,27.0465],[84.6463,27.0756],[84.6747,27.0965],[84.6896,27.2235],[84.6224,27.3364],[84.4841,27.3638],[84.5397,27.3859],[84.5325,27.4144],[84.5653,27.4632]]]}},{"type":"Feature","properties":{"id":"pyuthan","en":"Pyuthan","ne":"प्युठान","province":"lumbini"},"geometry":{"type":"Polygon","coordinates":[[[82.9487,28.3621],[83.0616,28.3177],[83.0974,28.2759],[83.0778,28.2337],[83.0219,28.2349],[83.0295,28.1749],[83.0569,28.1453],[83.0505,28.1062],[83.0021,28.1138],[82.9616,28.0463],[82.9763,28.0198],[82.9525,27.9937],[82.9997,27.9778],[83.0147,27.9236],[82.943,27.9311],[82.9167,27.9045],[82.8247,27.9058],[82.7916,27.8807],[82.7515,27.9438],[82.7627,27.9769],[82.6959,28.0153],[82.7187,28.0473],[82.6249,28.0702],[82.6004,28.0937],[82.59,28.147],[82.6252,28.1786],[82.684,28.1859],[82.6962,28.2116],[82.733,28.2075],[82.7584,28.1799],[82.8144,28.1875],[82.817,28.2145],[82.8521,28.235],[82.8486,28.2558],[82.8838,28.2714],[82.9487,28.3621]]]}},{"type":"Feature","properties":{"id":"ramechhap","en":"Ramechhap","ne":"रामेछाप","province":"bagmati"},"geometry":{"type":"Polygon","coordinates":[[[86.458,27.8231],[86.5671,27.804],[86.5728,27.7546],[86.5384,27.6711],[86.4925,27.6137],[86.4348,27.6103],[86.3766,27.5684],[86.3549,27.5249],[86.2635,27.4558],[86.2171,27.3531],[86.2406,27.2888],[86.2051,27.2504],[86.1507,27.2422],[86.0777,27.2755],[85.9832,27.336],[85.966,27.3845],[85.9453,27.3805],[85.8093,27.4552],[85.7975,27.5003],[85.8189,27.5179],[85.8267,27.5759],[85.8806,27.6147],[85.9523,27.5891],[85.9977,27.546],[85.9947,27.5036],[86.0935,27.5003],[86.1162,27.4744],[86.1919,27.572],[86.2888,27.6034],[86.3393,27.6833],[86.4206,27.7156],[86.4107,27.7907],[86.4387,27.8284],[86.458,27.8231]]]}},{"type":"Feature","properties":{"id":"rasuwa","en":"Rasuwa","ne":"रसुवा","province":"bagmati"},"geometry":{"type":"Polygon","coordinates":[[[85.712,28.3859],[85.7489,28.2382],[85.8002,28.1962],[85.7788,28.1744],[85.7192,28.1741],[85.6272,28.1293],[85.6016,28.1581],[85.533,28.1675],[85.4903,28.1387],[85.4892,28.1058],[85.2763,27.9652],[85.1837,27.9731],[85.1872,28.0192],[85.1332,28.0379],[85.1707,28.0821],[85.1293,28.0861],[85.1241,28.1056],[85.1955,28.1683],[85.2044,28.2035],[85.1875,28.2233],[85.2014,28.2542],[85.1598,28.3319],[85.2025,28.3407],[85.2729,28.2878],[85.3404,28.304],[85.3776,28.2786],[85.4154,28.3271],[85.5065,28.334],[85.6006,28.3044],[85.6087,28.2569],[85.6607,28.303],[85.6657,28.348],[85.6862,28.347],[85.6839,28.3825],[85.712,28.3859]]]}},{"type":"Feature","properties":{"id":"rautahat","en":"Rautahat","ne":"रौतहट","province":"madhesh"},"geometry":{"type":"Polygon","coordinates":[[[85.2981,27.2311],[85.3935,27.2104],[85.4572,27.1661],[85.5039,27.1646],[85.3882,27.0142],[85.3955,26.8924],[85.3425,26.8592],[85.3527,26.8412],[85.3218,26.8044],[85.3513,26.7617],[85.3262,26.7447],[85.2059,26.7616],[85.1768,26.8097],[85.1926,26.8668],[85.1632,26.889],[85.1794,26.9293],[85.164,26.9383],[85.1637,26.9808],[85.1982,27.0279],[85.1772,27.0376],[85.201,27.0405],[85.1831,27.0498],[85.2005,27.0658],[85.1972,27.1075],[85.2461,27.1585],[85.2627,27.2219],[85.2981,27.2311]]]}},{"type":"Feature","properties":{"id":"rolpa","en":"Rolpa","ne":"रोल्पा","province":"lumbini"},"geometry":{"type":"Polygon","coordinates":[[[82.5354,28.5538],[82.545,28.5256],[82.6412,28.4947],[82.6871,28.5238],[82.7033,28.5091],[82.7374,28.5265],[82.7527,28.5053],[82.8793,28.4764],[82.9567,28.3654],[82.9273,28.3487],[82.8838,28.2714],[82.8486,28.2558],[82.8524,28.2356],[82.817,28.2145],[82.8153,28.1881],[82.7584,28.1799],[82.733,28.2075],[82.6962,28.2116],[82.684,28.1859],[82.6252,28.1786],[82.5902,28.1475],[82.6074,28.1195],[82.598,28.0927],[82.5579,28.136],[82.504,28.1499],[82.4846,28.1305],[82.3968,28.1689],[82.4068,28.2207],[82.4373,28.2467],[82.4036,28.2622],[82.3635,28.3196],[82.3836,28.3728],[82.3504,28.4219],[82.3766,28.4304],[82.4182,28.5288],[82.4623,28.5211],[82.4942,28.5537],[82.5354,28.5538]]]}},{"type":"Feature","properties":{"id":"rukum-east","en":"Rukum East","ne":"पूर्वी रुकुम","province":"lumbini"},"geometry":{"type":"Polygon","coordinates":[[[82.6707,28.8524],[82.6957,28.8647],[82.7418,28.8459],[82.7658,28.8086],[82.8171,28.8313],[82.905,28.8324],[83.0793,28.7862],[83.1137,28.7436],[83.1454,28.7472],[83.1465,28.6818],[83.12,28.6752],[83.1148,28.6308],[82.9746,28.6269],[82.9526,28.5981],[82.9855,28.5709],[82.9774,28.5462],[82.9208,28.5672],[82.9141,28.5276],[82.8774,28.5154],[82.9065,28.4758],[82.8325,28.4784],[82.7527,28.5053],[82.7374,28.5265],[82.7033,28.5091],[82.6871,28.5238],[82.6573,28.4928],[82.5766,28.5141],[82.5446,28.5259],[82.5291,28.5583],[82.5751,28.5796],[82.5805,28.6127],[82.5084,28.6278],[82.4858,28.6406],[82.4899,28.6593],[82.5547,28.6441],[82.5995,28.6697],[82.6152,28.7103],[82.6014,28.7429],[82.566,28.7439],[82.5619,28.768],[82.6197,28.8091],[82.6137,28.8266],[82.6431,28.8665],[82.6707,28.8524]]]}},{"type":"Feature","properties":{"id":"rukum-west","en":"Rukum West","ne":"पश्चिम रुकुम","province":"karnali"},"geometry":{"type":"Polygon","coordinates":[[[82.5835,28.9876],[82.6662,28.9634],[82.7003,28.9019],[82.6957,28.8647],[82.6718,28.8522],[82.6431,28.8665],[82.6137,28.8266],[82.6197,28.8091],[82.5619,28.768],[82.566,28.7439],[82.6014,28.7429],[82.6152,28.7103],[82.5995,28.6697],[82.5547,28.6441],[82.4899,28.6593],[82.4858,28.6406],[82.5084,28.6278],[82.5799,28.6133],[82.5751,28.5796],[82.4923,28.5527],[82.463,28.5213],[82.3927,28.5266],[82.3404,28.5894],[82.1847,28.6231],[82.1971,28.6833],[82.2091,28.676],[82.2474,28.7124],[82.28,28.6943],[82.2943,28.7851],[82.3576,28.792],[82.4003,28.842],[82.4968,28.8787],[82.5133,28.95],[82.552,28.9878],[82.5835,28.9876]]]}},{"type":"Feature","properties":{"id":"rupandehi","en":"Rupandehi","ne":"रुपन्देही","province":"lumbini"},"geometry":{"type":"Polygon","coordinates":[[[83.3135,27.7626],[83.3711,27.7351],[83.3888,27.7489],[83.4441,27.7239],[83.5138,27.7292],[83.6339,27.6884],[83.5718,27.6105],[83.5959,27.5728],[83.5867,27.5322],[83.6147,27.4696],[83.3889,27.4797],[83.402,27.4577],[83.3843,27.4363],[83.4097,27.4127],[83.3593,27.3433],[83.3176,27.3302],[83.2917,27.3351],[83.2657,27.3656],[83.2723,27.3837],[83.2171,27.4179],[83.2331,27.5142],[83.2043,27.5599],[83.2317,27.6095],[83.2124,27.7594],[83.3135,27.7626]]]}},{"type":"Feature","properties":{"id":"salyan","en":"Salyan","ne":"सल्यान","province":"karnali"},"geometry":{"type":"Polygon","coordinates":[[[82.0542,28.6367],[82.0823,28.6182],[82.1939,28.6235],[82.2725,28.5929],[82.3398,28.5896],[82.375,28.5665],[82.3835,28.5297],[82.4173,28.5305],[82.3964,28.4616],[82.3504,28.4218],[82.3836,28.3728],[82.3635,28.3196],[82.4036,28.2622],[82.4373,28.2467],[82.4068,28.2207],[82.3983,28.1699],[82.3928,28.1893],[82.3671,28.1899],[82.3004,28.246],[82.1695,28.2516],[82.1438,28.2372],[82.1008,28.259],[82.0422,28.2302],[82.0076,28.1511],[81.9216,28.2269],[81.8609,28.2387],[81.8436,28.272],[81.7937,28.2739],[81.7872,28.2947],[81.7451,28.3133],[81.7793,28.3907],[81.9308,28.3379],[81.9814,28.3631],[81.9899,28.3954],[81.9619,28.4505],[82.0104,28.468],[82.0276,28.5168],[81.9941,28.57],[82.0041,28.6133],[82.0255,28.6139],[82.0287,28.6406],[82.0542,28.6367]]]}},{"type":"Feature","properties":{"id":"sankhuwasabha","en":"Sankhuwasabha","ne":"सङ्खुवासभा","province":"koshi"},"geometry":{"type":"Polygon","coordinates":[[[87.0184,27.9541],[87.0783,27.9157],[87.1159,27.8404],[87.1683,27.8217],[87.2257,27.8198],[87.2604,27.851],[87.3552,27.8275],[87.4186,27.8625],[87.4318,27.8424],[87.4036,27.8341],[87.4498,27.8224],[87.4901,27.8465],[87.536,27.8432],[87.5614,27.8671],[87.6115,27.8106],[87.6358,27.8344],[87.6695,27.8349],[87.6773,27.7899],[87.6394,27.7101],[87.6219,27.7119],[87.6053,27.6742],[87.5611,27.6985],[87.5323,27.6522],[87.545,27.6382],[87.5294,27.595],[87.4818,27.5672],[87.4444,27.4062],[87.5167,27.2974],[87.4797,27.2502],[87.4701,27.1979],[87.4199,27.1761],[87.4068,27.1364],[87.3653,27.1883],[87.2612,27.1771],[87.247,27.1916],[87.2024,27.247],[87.2014,27.3019],[87.1821,27.3161],[87.1922,27.3524],[87.1251,27.4022],[87.138,27.4528],[87.0726,27.4601],[87.0569,27.441],[87.0101,27.4361],[86.9402,27.4592],[86.9629,27.4835],[86.9429,27.5092],[86.9667,27.5416],[86.9537,27.6047],[87.0082,27.726],[86.979,27.7503],[86.9831,27.7914],[87.0102,27.8148],[86.9767,27.8259],[86.9908,27.8456],[86.9675,27.9068],[86.9833,27.9495],[87.0184,27.9541]]]}},{"type":"Feature","properties":{"id":"saptari","en":"Saptari","ne":"सप्तरी","province":"madhesh"},"geometry":{"type":"Polygon","coordinates":[[[86.5642,26.7896],[86.5772,26.7758],[86.5532,26.746],[86.6107,26.689],[86.6649,26.7045],[86.6848,26.6881],[86.737,26.7123],[86.7531,26.6863],[86.8239,26.7143],[86.8483,26.6913],[86.9221,26.7664],[86.9905,26.6982],[87.01,26.7109],[87.0134,26.6709],[86.9788,26.6252],[86.9923,26.5721],[86.9265,26.5266],[86.8916,26.4862],[86.894,26.4621],[86.8429,26.4403],[86.7663,26.4594],[86.7297,26.4225],[86.6278,26.4669],[86.6206,26.4844],[86.5644,26.5011],[86.5418,26.5385],[86.4859,26.5499],[86.5129,26.6021],[86.5027,26.7239],[86.5285,26.7447],[86.5253,26.7854],[86.5642,26.7896]]]}},{"type":"Feature","properties":{"id":"sarlahi","en":"Sarlahi","ne":"सर्लाही","province":"madhesh"},"geometry":{"type":"Polygon","coordinates":[[[85.7352,27.1903],[85.8158,27.1608],[85.7932,27.1373],[85.7975,27.0947],[85.7477,27.0346],[85.6804,26.8435],[85.6344,26.8723],[85.5852,26.8472],[85.5753,26.8611],[85.4959,26.7971],[85.452,26.7813],[85.4077,26.7913],[85.3262,26.7447],[85.3513,26.7617],[85.3218,26.8044],[85.3527,26.8412],[85.3425,26.8592],[85.3955,26.8924],[85.4013,26.9838],[85.3861,27.009],[85.4895,27.1546],[85.6298,27.1374],[85.6984,27.1861],[85.7352,27.1903]]]}},{"type":"Feature","properties":{"id":"sindhuli","en":"Sindhuli","ne":"सिन्धुली","province":"bagmati"},"geometry":{"type":"Polygon","coordinates":[[[85.8242,27.449],[85.9453,27.3805],[85.966,27.3845],[85.9835,27.3357],[86.1483,27.2428],[86.1914,27.2552],[86.2301,27.2374],[86.266,27.2611],[86.341,27.229],[86.3436,27.2029],[86.3899,27.1799],[86.3679,27.1406],[86.343,27.1473],[86.3262,27.111],[86.3064,27.1089],[86.3626,27.0996],[86.3461,27.0661],[86.3826,27.0315],[86.3537,26.9651],[86.2835,26.9492],[86.2597,26.9191],[86.1876,26.9825],[86.1064,27.0152],[85.9917,27.0248],[85.938,27.1216],[85.883,27.1464],[85.8625,27.1272],[85.8316,27.1668],[85.7248,27.1951],[85.6298,27.1374],[85.4957,27.1465],[85.5034,27.1731],[85.4805,27.1808],[85.5102,27.1977],[85.5041,27.2217],[85.4878,27.2208],[85.4801,27.2688],[85.4322,27.2889],[85.4246,27.3322],[85.4872,27.3765],[85.5591,27.3394],[85.6352,27.3536],[85.6506,27.3336],[85.6893,27.3371],[85.7144,27.4064],[85.7735,27.3982],[85.7908,27.4434],[85.8242,27.449]]]}},{"type":"Feature","properties":{"id":"sindhupalchok","en":"Sindhupalchok","ne":"सिन्धुपाल्चोक","province":"bagmati"},"geometry":{"type":"Polygon","coordinates":[[[85.8166,28.1995],[85.8485,28.1842],[85.8701,28.1238],[85.8981,28.1091],[85.9009,28.0539],[85.9771,27.9967],[85.9488,27.941],[86.065,27.8995],[86.0025,27.8302],[86.0303,27.7423],[85.961,27.7422],[85.9363,27.709],[85.9392,27.6692],[85.884,27.6105],[85.8174,27.6441],[85.8126,27.6691],[85.7347,27.6767],[85.706,27.6417],[85.6549,27.72],[85.6039,27.7488],[85.5541,27.7492],[85.5657,27.7645],[85.5335,27.7919],[85.473,27.778],[85.4486,27.8177],[85.4875,27.9198],[85.4785,27.9594],[85.4971,28.0294],[85.4418,28.0826],[85.4892,28.1058],[85.5029,28.1519],[85.5545,28.1683],[85.6314,28.1299],[85.6526,28.152],[85.7788,28.1744],[85.8166,28.1995]]]}},{"type":"Feature","properties":{"id":"siraha","en":"Siraha","ne":"सिराहा","province":"madhesh"},"geometry":{"type":"Polygon","coordinates":[[[86.1608,26.9144],[86.2469,26.8638],[86.2875,26.8867],[86.366,26.8726],[86.3829,26.9085],[86.4038,26.9098],[86.4796,26.8886],[86.5196,26.8316],[86.552,26.8352],[86.5232,26.7798],[86.5285,26.7447],[86.5026,26.7234],[86.5129,26.6021],[86.4859,26.5499],[86.3333,26.619],[86.2522,26.6171],[86.2173,26.5885],[86.1923,26.6147],[86.1465,26.6088],[86.151,26.6378],[86.2002,26.6848],[86.1445,26.7872],[86.1552,26.8449],[86.1325,26.915],[86.1562,26.9354],[86.1608,26.9144]]]}},{"type":"Feature","properties":{"id":"solukhumbu","en":"Solukhumbu","ne":"सोलुखुम्बु","province":"koshi"},"geometry":{"type":"Polygon","coordinates":[[[86.58,28.1107],[86.6348,28.0707],[86.6891,28.1087],[86.7383,28.1038],[86.7649,28.0746],[86.7529,28.0379],[86.7901,28.0189],[86.8674,28.0253],[86.9254,27.9879],[86.9335,27.9626],[86.9833,27.9495],[86.9671,27.9027],[86.9906,27.847],[86.9767,27.8259],[87.0102,27.8148],[86.9795,27.7754],[87.0075,27.7178],[86.9537,27.6047],[86.9667,27.5416],[86.9429,27.5092],[86.9629,27.4835],[86.9402,27.4506],[86.8713,27.4282],[86.8218,27.4402],[86.7518,27.3945],[86.6843,27.3926],[86.6786,27.3536],[86.6418,27.3383],[86.5708,27.3408],[86.5026,27.4254],[86.4646,27.4285],[86.4399,27.4857],[86.3556,27.5263],[86.3763,27.5681],[86.4348,27.6103],[86.4999,27.6204],[86.5728,27.7546],[86.5671,27.804],[86.5404,27.8149],[86.5544,27.9089],[86.5122,27.9673],[86.5334,28.0466],[86.5653,28.069],[86.5623,28.1072],[86.58,28.1107]]]}},{"type":"Feature","properties":{"id":"sunsari","en":"Sunsari","ne":"सुनसरी","province":"koshi"},"geometry":{"type":"Polygon","coordinates":[[[87.2382,26.8758],[87.3082,26.8718],[87.3539,26.8391],[87.3236,26.7877],[87.3393,26.7366],[87.285,26.6575],[87.3013,26.6296],[87.2911,26.5759],[87.246,26.5212],[87.2451,26.4143],[87.1625,26.4041],[87.0915,26.4504],[87.0718,26.5858],[87.0446,26.5873],[87.0153,26.5322],[86.9327,26.5169],[86.9299,26.4897],[86.9041,26.4884],[86.9333,26.5336],[86.9923,26.5721],[86.9788,26.6252],[87.0134,26.6709],[87.01,26.7109],[87.0343,26.7507],[87.1051,26.7548],[87.1581,26.8754],[87.216,26.8634],[87.2382,26.8758]]]}},{"type":"Feature","properties":{"id":"surkhet","en":"Surkhet","ne":"सुर्खेत","province":"karnali"},"geometry":{"type":"Polygon","coordinates":[[[81.0608,28.9717],[81.1169,28.9646],[81.2042,28.9081],[81.2661,28.9027],[81.3021,28.9258],[81.3476,28.8902],[81.4146,28.9142],[81.4639,28.8944],[81.4633,28.8528],[81.5226,28.803],[81.5155,28.7805],[81.5351,28.7613],[81.52,28.7496],[81.5465,28.7491],[81.6393,28.6765],[81.6753,28.6792],[81.7778,28.6336],[81.8201,28.7241],[81.8856,28.6432],[82.0404,28.6419],[82.0248,28.6131],[82.0042,28.6135],[81.9941,28.57],[82.0252,28.4991],[81.9862,28.447],[81.9615,28.4491],[81.9899,28.3954],[81.9814,28.3631],[81.937,28.3373],[81.8103,28.3897],[81.7788,28.3906],[81.7667,28.3702],[81.7321,28.3777],[81.4454,28.5543],[81.401,28.6069],[81.3164,28.6368],[81.3211,28.6676],[81.2853,28.6733],[81.2666,28.704],[81.2725,28.7271],[81.2259,28.7952],[81.2421,28.8109],[81.2065,28.8621],[81.2034,28.8168],[81.153,28.8304],[81.1434,28.8731],[81.1024,28.8448],[80.9811,28.9388],[81.0608,28.9717]]]}},{"type":"Feature","properties":{"id":"syangja","en":"Syangja","ne":"स्याङ्जा","province":"gandaki"},"geometry":{"type":"Polygon","coordinates":[[[83.8066,28.2195],[83.8909,28.1946],[83.9307,28.1438],[84.0028,28.1308],[83.995,28.1022],[83.9411,28.0615],[84.032,28.0195],[83.9794,27.9976],[83.9781,27.9102],[83.941,27.8944],[83.9423,27.876],[83.8776,27.8884],[83.8455,27.8685],[83.8072,27.8733],[83.7623,27.91],[83.743,27.9001],[83.6757,27.9275],[83.6343,27.8994],[83.6262,27.9261],[83.571,27.9431],[83.5241,27.9242],[83.5087,27.9408],[83.4839,27.9227],[83.4402,27.9329],[83.4832,27.9818],[83.5219,27.9639],[83.5773,27.9744],[83.6049,28.0121],[83.6936,28.027],[83.7127,28.0637],[83.7036,28.0903],[83.73,28.1015],[83.7088,28.1304],[83.7595,28.1462],[83.7563,28.1903],[83.8066,28.2195]]]}},{"type":"Feature","properties":{"id":"tanahu","en":"Tanahu","ne":"तनहुँ","province":"gandaki"},"geometry":{"type":"Polygon","coordinates":[[[84.4002,28.1268],[84.4436,28.1044],[84.4776,28.0582],[84.4209,27.9577],[84.5015,27.9156],[84.5385,27.9175],[84.5589,27.8584],[84.5552,27.8358],[84.522,27.8323],[84.5171,27.8162],[84.4328,27.8134],[84.4313,27.7869],[84.4707,27.7522],[84.422,27.7413],[84.3785,27.7792],[84.3607,27.7536],[84.3261,27.7481],[84.2914,27.8379],[84.2095,27.8388],[84.2022,27.8525],[84.1562,27.8397],[84.0805,27.8699],[84.0537,27.8491],[84.0186,27.851],[83.9384,27.8809],[83.9781,27.9102],[83.9794,27.9976],[84.032,28.0195],[83.9411,28.0615],[83.9984,28.1136],[84.0697,28.0777],[84.1057,28.1105],[84.2195,28.0999],[84.2325,28.0787],[84.3295,28.1241],[84.4002,28.1268]]]}},{"type":"Feature","properties":{"id":"taplejung","en":"Taplejung","ne":"ताप्लेजुङ","province":"koshi"},"geometry":{"type":"Polygon","coordinates":[[[87.8341,27.9517],[87.857,27.948],[87.8659,27.9108],[87.9322,27.9179],[87.9848,27.886],[88.0301,27.906],[88.0644,27.8864],[88.0841,27.8955],[88.0958,27.8673],[88.1349,27.8818],[88.1966,27.8534],[88.2013,27.8375],[88.1731,27.8205],[88.1973,27.7909],[88.1563,27.7366],[88.1446,27.6657],[88.082,27.5851],[88.0437,27.496],[88.0724,27.4449],[88.0343,27.4092],[88.0038,27.3291],[87.9504,27.2827],[87.781,27.2727],[87.6962,27.2914],[87.6514,27.2682],[87.5165,27.2967],[87.4444,27.4062],[87.4818,27.5672],[87.5294,27.595],[87.545,27.6382],[87.5323,27.6522],[87.5611,27.6985],[87.6078,27.6753],[87.6637,27.7503],[87.6774,27.7905],[87.6655,27.8069],[87.7332,27.8093],[87.8341,27.9517]]]}},{"type":"Feature","properties":{"id":"terhathum","en":"Terhathum","ne":"तेह्रथुम","province":"koshi"},"geometry":{"type":"Polygon","coordinates":[[[87.5356,27.2912],[87.6799,27.2711],[87.7515,27.2084],[87.718,27.1876],[87.706,27.1505],[87.5891,27.0996],[87.5115,26.9907],[87.4389,26.9711],[87.3947,27.1234],[87.4199,27.1761],[87.4701,27.1979],[87.4918,27.2689],[87.5167,27.2969],[87.5356,27.2912]]]}},{"type":"Feature","properties":{"id":"udayapur","en":"Udayapur","ne":"उदयपुर","province":"koshi"},"geometry":{"type":"Polygon","coordinates":[[[86.3998,27.1767],[86.4653,27.1024],[86.5813,27.1525],[86.6688,27.1201],[86.7472,27.0244],[86.7717,26.8853],[86.8053,26.873],[86.9314,26.9077],[86.9776,26.9065],[87.0021,26.8864],[87.1491,26.9256],[87.1686,26.8891],[87.142,26.8156],[87.1038,26.7536],[87.0388,26.7546],[86.9908,26.6982],[86.9213,26.7666],[86.8483,26.6913],[86.8239,26.7143],[86.7531,26.6863],[86.737,26.7123],[86.6848,26.6881],[86.6649,26.7045],[86.6107,26.689],[86.5532,26.746],[86.5779,26.7844],[86.5301,26.7912],[86.552,26.8352],[86.5196,26.8316],[86.4796,26.8886],[86.3844,26.9094],[86.366,26.8726],[86.2875,26.8867],[86.2469,26.8638],[86.1569,26.9174],[86.1575,26.93],[86.2214,26.8886],[86.2835,26.9492],[86.3537,26.9651],[86.3826,27.0315],[86.3461,27.0661],[86.3626,27.0996],[86.3064,27.1089],[86.3998,27.1767]]]}}]}