{"type": "FeatureCollection", "name": "NH42", "source": "Department of Roads NAVIGATE strategic road network (assets/geojson/roads_type_shp_files/srn.geojson), simplified. NH42-014 is the Syaphrubesi–Rasuwagadhi section listed closed.", "features": [{"type": "Feature", "properties": {"road_refno": "NH42", "link_code": "NH42-004", "link_name": "Chuniyadhara(DB) - Malekhu", "district": "Dhading", "closed_section": false}, "geometry": {"type": "LineString", "coordinates": [[84.79270020143987, 27.712014675655308], [84.79476591254307, 27.714318473546385], [84.79544874986837, 27.71737199487407], [84.79305459204669, 27.71965226374425], [84.7908905960497, 27.721910096308694], [84.78810425797843, 27.724063562200865], [84.78994775349959, 27.726442258526696], [84.78831652752491, 27.72920070980936], [84.78584135338788, 27.731016014465098], [84.78835431957975, 27.732689326596056], [84.79195995384637, 27.73150639366999], [84.794940711828, 27.73113270601996], [84.79825043087932, 27.731412240006293], [84.80121123681971, 27.730423192065498], [84.80395992908622, 27.731691733185965], [84.80690191070538, 27.732342663588852], [84.80866273473721, 27.73481844826574], [84.81121594498164, 27.736603073431393], [84.81195150182404, 27.739674177332777], [84.81322453033796, 27.742599147351594], [84.81663325141447, 27.742532329585764], [84.81878899109046, 27.744629883131932], [84.8198582055609, 27.747468282641073], [84.82097564814333, 27.750334634873944], [84.82385635836698, 27.751882478209485], [84.82547826912418, 27.754535928851944], [84.82524731677114, 27.75771501499928], [84.82531338963874, 27.760898174295864], [84.8269447292403, 27.763555577429052], [84.82593584601449, 27.76642154070778], [84.82604906391177, 27.769491814533932], [84.82802456904103, 27.77180277385096], [84.82991050191174, 27.774422363764863], [84.83316557180986, 27.775636509952133], [84.83462528442833, 27.778643581246065], [84.8331543617012, 27.78153835265291], [84.8325650878436, 27.784516451535954], [84.83435597308167, 27.787066546685786], [84.83689326690433, 27.788804015231417], [84.83891120721586, 27.791235513446555], [84.84075470540293, 27.793725348297883], [84.84145254272954, 27.79669892138887], [84.84033994226961, 27.799864278925757], [84.83829382455704, 27.802583345584253], [84.83642214232843, 27.80496455867797], [84.83909431593014, 27.803985090279166]]}}, {"type": "Feature", "properties": {"road_refno": "NH42", "link_code": "NH42-003", "link_name": "Bumetar - Chuniyadhara(DB)", "district": "Chitawan", "closed_section": false}, "geometry": {"type": "LineString", "coordinates": [[84.66850552613938, 27.63191696777659], [84.67104123903884, 27.63353109224348], [84.67399363112735, 27.634501421558852], [84.6772359151131, 27.634375720731455], [84.680429295774, 27.63539220162267], [84.68289358713064, 27.637135656064878], [84.686346574324, 27.636995351899106], [84.68759604774164, 27.640080703484397], [84.68867008494406, 27.64288549307559], [84.69202998881084, 27.642861303918], [84.6951524627548, 27.642779258765685], [84.69816045040234, 27.642422926285604], [84.70128396067688, 27.641797481982778], [84.704249181991, 27.642487259006753], [84.70686348949303, 27.640656512110013], [84.71008113439689, 27.640122023311434], [84.71307405906721, 27.63967774592329], [84.71630252195055, 27.640781434554697], [84.71723108595866, 27.643897005665366], [84.72024762734411, 27.64332463480904], [84.72091946340144, 27.646443927377717], [84.72362370480934, 27.648376821248185], [84.72658465622125, 27.64944176823773], [84.72732495343584, 27.65257604534676], [84.7306367417558, 27.652496401761], [84.73177068426709, 27.65539561745625], [84.73054700986351, 27.658325113369173], [84.72925486994873, 27.66106884117682], [84.72986252418923, 27.664153523544748], [84.72933201654438, 27.66714340283054], [84.72955885557535, 27.670148345598992], [84.73115490169259, 27.672732582408983], [84.73293065897519, 27.67539253711076], [84.73343990615355, 27.678734468639014], [84.73647786696348, 27.67938612260502], [84.73768455194669, 27.68239450063056], [84.73744501474042, 27.68599007663321], [84.73878006426065, 27.689047522347558], [84.74153991800216, 27.690400009812592], [84.74324721345957, 27.693025439339237], [84.74620414526525, 27.693582750159507], [84.74968828056394, 27.69248481413061], [84.74798633214719, 27.695135592363343], [84.74921692626934, 27.697949052782647], [84.74673231922344, 27.69966887213361], [84.74833537642724, 27.702611605576262], [84.75056547034767, 27.70469858425107], [84.75224866800075, 27.707194574968646], [84.75384700819882, 27.710020240300867], [84.75682670831013, 27.710717211272936], [84.75954704902897, 27.708968344665696], [84.76256447649342, 27.710132786402585], [84.76583648919639, 27.710904879557418], [84.76320101060548, 27.712557717738463], [84.76588841633423, 27.714010107595257], [84.76897185179078, 27.715287181669602], [84.7723098648479, 27.71582134323043], [84.77557242187095, 27.71534550133927], [84.77879256057761, 27.715520737814735], [84.78187125861808, 27.71570849753415], [84.78164488980379, 27.712690967641162], [84.78470001064491, 27.7127368269272], [84.787241196331, 27.711138251316505], [84.7902444563563, 27.7111966339544], [84.79064514178614, 27.708174794866427], [84.79124868740605, 27.71125922293985], [84.78808884682918, 27.71305860158199], [84.79112613014657, 27.71245708201137], [84.79270020143987, 27.712014675655308]]}}, {"type": "Feature", "properties": {"road_refno": "NH42", "link_code": "NH42-013", "link_name": "Chileme HP - Shyaphrubesi", "district": "Rasuwa", "closed_section": false}, "geometry": {"type": "LineString", "coordinates": [[85.33497954096313, 28.15753454079556], [85.33843202338704, 28.159914335843606], [85.3393383581277, 28.162882500340885], [85.34272833977926, 28.164550720952814], [85.34474152988263, 28.165961517631835]]}}, {"type": "Feature", "properties": {"road_refno": "NH42", "link_code": "NH42-001", "link_name": "Thori - Bhandara", "district": "Parsa", "closed_section": false}, "geometry": {"type": "LineString", "coordinates": [[84.61276670455521, 27.451704098561653], [84.62244760661872, 27.46973035098128], [84.62726120033297, 27.487571289343773], [84.62705779026824, 27.497084718749523], [84.62506994297297, 27.50756733963026], [84.6195878205389, 27.518235707484695], [84.61836750699511, 27.521028652353046], [84.61744747376248, 27.52745897633078], [84.61927784328836, 27.535143741485076], [84.62295470010666, 27.544772571583508], [84.6278416725244, 27.547169558790646], [84.63657486442027, 27.549999747928016], [84.64294767498197, 27.5515823540365], [84.65084224154973, 27.553811324203256], [84.6558092807871, 27.55548946281326], [84.64944989340975, 27.57244721008961], [84.64767730805124, 27.574870497647336], [84.64731323853128, 27.57844078992065], [84.64663333399743, 27.581614217870868], [84.64572588281588, 27.58565385287522], [84.6454451752733, 27.58931237274298], [84.64580714354139, 27.59616266011044], [84.6460152985419, 27.599161598841647], [84.6470347664832, 27.600849794835863]]}}, {"type": "Feature", "properties": {"road_refno": "NH42", "link_code": "NH42-014", "link_name": "Shyaphrubesi - Rasuwagadhi (IB)", "district": "Rasuwa", "closed_section": true}, "geometry": {"type": "LineString", "coordinates": [[85.34474152988263, 28.165961517631835], [85.34457187191721, 28.1671339021111], [85.3444273618311, 28.167941929130876], [85.34464418180997, 28.16917574295592], [85.34478873702784, 28.17037937015871], [85.34486103290195, 28.171764028906424], [85.34510068609954, 28.173607975189444], [85.34481926909079, 28.175059650009295], [85.34473942128186, 28.17611905632305], [85.3447166329212, 28.177527109290867], [85.34451129743309, 28.17975605262884], [85.34442762377027, 28.18089113053196], [85.34510330325465, 28.181828343840127], [85.34583112743312, 28.182210410037612], [85.34664124447173, 28.18211653043832], [85.34709768977511, 28.18390330566507], [85.34798009662804, 28.184965959618776], [85.34857724697592, 28.185857644117483], [85.34885491409202, 28.18678620219352], [85.34903155312524, 28.187685631109773], [85.34959137942003, 28.18838957395295], [85.35040437217388, 28.189366915336862], [85.35099272499914, 28.190165124257263], [85.35204107700304, 28.192223478376178], [85.35223542591315, 28.193086357959928], [85.35304180119725, 28.19464953029902], [85.35334975828032, 28.195859292792825], [85.35395950382389, 28.196619744608867], [85.35471187642277, 28.197361333195044], [85.35546754416411, 28.199102885677487], [85.35558958177664, 28.20036475477864], [85.3557583853235, 28.201613282285084], [85.35647037122905, 28.203380248547667], [85.35733448275087, 28.204747082128037], [85.35779279753353, 28.2056756739192], [85.3577678581511, 28.20657117620976], [85.35726869094285, 28.207743182892862], [85.35718670058053, 28.20864495361803], [85.35706192929332, 28.209820072829046], [85.3572295333974, 28.21062441999447], [85.35752678522576, 28.212122873085146], [85.35771451736458, 28.213021717174758], [85.3575505235849, 28.214228208062845], [85.3576111606277, 28.21511107000806], [85.35824587179904, 28.216144723188403], [85.35885205367961, 28.216961581949374], [85.35942257261655, 28.21753966142335], [85.35996814155537, 28.21851988238436], [85.36056005977606, 28.219295881358775], [85.36131600204634, 28.22024152335573], [85.36197566293622, 28.220807016648642], [85.36331637714919, 28.22185945121714], [85.36380132462915, 28.222613436345235], [85.36416321148023, 28.223627106475213], [85.36433980294434, 28.22542200701805], [85.36438975722922, 28.226980202846843], [85.36431955743411, 28.22785681963916], [85.36429709646357, 28.229041008803268], [85.36381933672922, 28.23080020940371], [85.36381579203034, 28.231755187760555], [85.3638015490105, 28.232631623656253], [85.3631276639298, 28.233759368741318], [85.3626444373536, 28.234492832278736], [85.36239674221699, 28.235524778639423], [85.3618191324402, 28.23678756420664], [85.36135204572885, 28.237510049015228], [85.36128790308544, 28.239231408985788], [85.36131579459182, 28.240247218037354], [85.36148049977288, 28.241508708245217], [85.36153400806799, 28.242551538519713], [85.3629139492154, 28.24380478264904], [85.3637875506594, 28.244370146765963], [85.3658841965144, 28.24589347907615], [85.3664119314847, 28.246650434433644], [85.36687549542165, 28.247875379434753], [85.36813588062364, 28.24915534093851], [85.36875109810336, 28.250626726682118], [85.36847417452427, 28.251506614519734], [85.36818062808149, 28.252266225026997], [85.36808080738945, 28.253063975420442], [85.36862496424584, 28.254173225134334], [85.3693716332546, 28.2555042753343], [85.36991007050278, 28.2564370375553], [85.37026309764974, 28.257592778487666], [85.3709477165052, 28.25808898040149], [85.37193898519804, 28.258698234548962], [85.37262716897916, 28.259163025784154], [85.3733795448585, 28.260039223239467], [85.37423175580759, 28.26078037046023], [85.37496985828167, 28.26123258881656], [85.3758220696412, 28.261976868149027], [85.37608951387958, 28.26284363008518], [85.3761443371629, 28.26396121669433], [85.37747303795385, 28.264881734636017], [85.37829315626097, 28.265516076742617], [85.37881925780742, 28.266168003577167], [85.3798317388285, 28.268125169151435], [85.3801637165322, 28.26897299900249], [85.38066442135458, 28.26984023195344], [85.3807928046112, 28.270713212118956], [85.38079548836271, 28.271711636486344], [85.38071590345282, 28.27323170450477], [85.38042207473174, 28.275131407278323], [85.38018319845229, 28.27614251356521], [85.38046373294809, 28.27716222525015], [85.38012262964541, 28.27827458986114]]}}, {"type": "Feature", "properties": {"road_refno": "NH42", "link_code": "NH42-005", "link_name": "Galchhi - Baghmara", "district": "Dhading", "closed_section": false}, "geometry": {"type": "LineString", "coordinates": [[85.00266296837077, 27.795493664401494], [85.00198986001533, 27.799257057695396], [85.00478882547996, 27.80056181020726], [85.00733712528067, 27.802281714724042], [85.01008985037468, 27.803787124900477], [85.01294240493867, 27.804796310486868], [85.01582824698897, 27.806204967137106], [85.01724030906496, 27.808908766211722], [85.01837820752625, 27.80994331154226]]}}, {"type": "Feature", "properties": {"road_refno": "NH42", "link_code": "NH42-009", "link_name": "Gerkhutar - Betrawati Bridge", "district": "Nuwakot", "closed_section": false}, "geometry": {"type": "LineString", "coordinates": [[85.15979304817895, 27.933140969832063], [85.1600321613865, 27.936336816426277], [85.16196407467127, 27.9394107322776], [85.1635276044049, 27.942764273035795], [85.16503058274441, 27.945663323835483], [85.16646555954514, 27.948613232268684], [85.16620965487232, 27.95186399379692], [85.1677001773333, 27.95502011078742], [85.17061591914204, 27.95755714037037], [85.17314327244767, 27.96025003042892], [85.17539837495495, 27.96248774044058], [85.178318103793, 27.964061404391643], [85.18092096127481, 27.966330503139194], [85.18343347334645, 27.968550076845723], [85.18653860905324, 27.969094894904764], [85.18800678345278, 27.972319456871457], [85.18814056267082, 27.97388098016036]]}}, {"type": "Feature", "properties": {"road_refno": "NH42", "link_code": "NH42-010", "link_name": "Betrawati Bridge - Betrawati", "district": "Rasuwa", "closed_section": false}, "geometry": {"type": "LineString", "coordinates": [[85.18814056267082, 27.97388098016036], [85.18640941456198, 27.974549768080113]]}}, {"type": "Feature", "properties": {"road_refno": "NH42", "link_code": "NH42-008", "link_name": "Battar - Gerkhutar", "district": "Nuwakot", "closed_section": false}, "geometry": {"type": "LineString", "coordinates": [[85.14645930500286, 27.910901274706124], [85.14510958907564, 27.913883732997093], [85.14515989365772, 27.91692638697079], [85.1483249962207, 27.919266795467806], [85.15144758111609, 27.91986155688979], [85.15444466678449, 27.921495318717614], [85.15643436406287, 27.924066017995482], [85.15517218247423, 27.92697694394412], [85.15591677186792, 27.930103880289266], [85.1587389068558, 27.931474788467167], [85.15979304817895, 27.933140969832063]]}}, {"type": "Feature", "properties": {"road_refno": "NH42", "link_code": "NH42-007", "link_name": "Beltar - Battar", "district": "Nuwakot", "closed_section": false}, "geometry": {"type": "LineString", "coordinates": [[85.14758088455882, 27.88011984462865], [85.15020687801976, 27.883030657637047], [85.15149918603365, 27.88619934720144], [85.15255904702457, 27.889242209520194], [85.15264033266456, 27.892323518889594], [85.14982348012806, 27.893389750061814], [85.14875384953493, 27.896546238943948], [85.14834387476546, 27.900070250665298], [85.14826671081504, 27.904297855460975], [85.14690587537719, 27.907060173933495], [85.14673954279328, 27.910074463841376], [85.14645930500286, 27.910901274706124]]}}, {"type": "Feature", "properties": {"road_refno": "NH42", "link_code": "NH42-011", "link_name": "Betrawati - Dandagaun", "district": "Rasuwa", "closed_section": false}, "geometry": {"type": "LineString", "coordinates": [[85.18640940344018, 27.974549769320607], [85.184813632802, 27.977103987258698], [85.18403817715041, 27.98025721061899], [85.18414483818273, 27.983489229938048], [85.18400773530425, 27.986574229041874], [85.18562484776665, 27.989435052932528], [85.18641592171993, 27.99260148659745], [85.18665963160277, 27.995703318795066], [85.18652987924507, 27.998857184117384], [85.18575611866525, 28.00217294514177], [85.185763410746, 28.005436434293618], [85.18487763786646, 28.00858084175043], [85.18391655725523, 28.011910441041906], [85.1838200656354, 28.014977941460707], [85.18491870052883, 28.017919575766395], [85.18617509261712, 28.02073445058193], [85.1879617077033, 28.024345999454255], [85.19073576322647, 28.02607399394298], [85.1933111179523, 28.027990896118336], [85.19530093138741, 28.03075071916072], [85.1957574884694, 28.034484094325805], [85.19549494971858, 28.037511946221667], [85.19626018520147, 28.040463642583923], [85.19848464345979, 28.043004865853828], [85.20108710473254, 28.04548569048261], [85.20304084047709, 28.04777499946552], [85.20510432710209, 28.050056842965162], [85.20720185064383, 28.0525042407151], [85.20974923413512, 28.054149306661003], [85.21030766869539, 28.058009509895612], [85.20953983320669, 28.06122764376884], [85.20816876530489, 28.0641940232594], [85.20726989142182, 28.06710931922548], [85.20892692988504, 28.06976526862806], [85.20882363989276, 28.07310524175789], [85.20793337133291, 28.07424620730785]]}}, {"type": "Feature", "properties": {"road_refno": "NH42", "link_code": "NH42-012", "link_name": "Dandagaun - Chileme HP", "district": "Rasuwa", "closed_section": false}, "geometry": {"type": "LineString", "coordinates": [[85.20793337133291, 28.07424620730785], [85.21126322291721, 28.074322732608643], [85.21405769227084, 28.075708089637356], [85.21688598544942, 28.077019185369988], [85.21949204042967, 28.079206817515313], [85.221860893889, 28.08165368644308], [85.22487944207576, 28.082901832722523], [85.22771385700027, 28.08459452898909], [85.23018922679701, 28.08741185130975], [85.2331141480358, 28.089536496910426], [85.23596349416461, 28.091484581829896], [85.23927786375556, 28.092552526622153], [85.24235993263801, 28.093306509256347], [85.24535057663277, 28.0945306357643], [85.24825013524136, 28.093676651100928], [85.25131038168037, 28.09317933235861], [85.25508846074524, 28.093915474697447], [85.2580532022741, 28.095408348777294], [85.26124047093535, 28.095805034461005], [85.26439759504345, 28.097291772580444], [85.26652963119356, 28.099972717040888], [85.26895518283612, 28.101961694692907], [85.27186331109523, 28.103634820971465], [85.27408219561036, 28.10595526978989], [85.27674317129451, 28.10786358223728], [85.27900577151922, 28.110125671920883], [85.28166650047822, 28.11225334102504], [85.28422942397353, 28.11537564616018], [85.28752135503439, 28.11792234206983], [85.29051023881463, 28.11976317196856], [85.29336403966265, 28.122811124642624], [85.29632091187507, 28.12522177771462], [85.3006695703864, 28.12849896166719], [85.30221376217081, 28.131344002483715], [85.30510776780577, 28.135837180161474], [85.30875422923012, 28.140794257023575], [85.312161987823, 28.143450388162346], [85.31630000416308, 28.14601835316003], [85.31953676033241, 28.148061944500984], [85.32396689802461, 28.150587908779972], [85.3270181256656, 28.15257214184397], [85.33047903593261, 28.15561620191953], [85.33450452324035, 28.1573621270533], [85.33497952978975, 28.157534541149783]]}}, {"type": "Feature", "properties": {"road_refno": "NH42", "link_code": "NH42-006", "link_name": "Baghmara - Beltar", "district": "Nuwakot", "closed_section": false}, "geometry": {"type": "LineString", "coordinates": [[85.01837820752625, 27.80994331154226], [85.01629962627366, 27.812538041099064], [85.0186149918403, 27.81531314730138], [85.0201839504222, 27.818403540927505], [85.0214724072646, 27.82131305864238], [85.0225184094791, 27.824739637782773], [85.02409211314695, 27.82736729731422], [85.02501450261109, 27.830642339531586], [85.02651215015342, 27.83379115331273], [85.026250740986, 27.83719213840543], [85.02573714223418, 27.84046638990901], [85.02530003168064, 27.843455733786506], [85.0277589330378, 27.845294002297674], [85.03094812466921, 27.84709171016282], [85.03392428831278, 27.848079473486667], [85.03739489925275, 27.849495965758592], [85.04074665234265, 27.85076952774703], [85.04440264913494, 27.850828312417036], [85.04744058422216, 27.85025660518512], [85.05086663902703, 27.85106679970697], [85.05424866373437, 27.85192100620343], [85.05715351824695, 27.853097873176857], [85.06021051461843, 27.85461938635637], [85.06467947154958, 27.85412753556396], [85.06782674839215, 27.85335408840847], [85.07094654066108, 27.85305608841371], [85.07423541633476, 27.852345196572905], [85.07745400135921, 27.85131533377631], [85.08074395753356, 27.852992388702788], [85.08354555984779, 27.854130127224035], [85.08687692688552, 27.85414817167224], [85.09000519854841, 27.853870706410948], [85.09247744621473, 27.856308503735423], [85.09434591408943, 27.859048874482095], [85.09755025902685, 27.85906983484295], [85.10061995036284, 27.858096274615534], [85.1036403779783, 27.85732966722526], [85.10675914811664, 27.857413675560338], [85.11020121340162, 27.857850736397445], [85.11325946050415, 27.86026723040637], [85.11645788455291, 27.863247230000578], [85.11914881767373, 27.865306562931462], [85.12193484066982, 27.867622220047], [85.12507266217837, 27.869278012039285], [85.12817721625426, 27.871471705447462], [85.13077306049972, 27.873303950838732], [85.13348300570264, 27.875127759465432], [85.13627375871467, 27.876291768553365], [85.13918625523436, 27.877435622900617], [85.14215952526672, 27.8782331353926], [85.14632701342136, 27.879908000891582], [85.14758088455882, 27.88011984462865]]}}, {"type": "Feature", "properties": {"road_refno": "NH42", "link_code": "NH42-002", "link_name": "Bhandara - Bumetar", "district": "Chitawan", "closed_section": false}, "geometry": {"type": "LineString", "coordinates": [[84.6470347664832, 27.600849794835863], [84.6486796168294, 27.603741220121343], [84.65063079755923, 27.606061614370443], [84.65309733028168, 27.607827915323714], [84.65384206003256, 27.610861869724015], [84.65588530917319, 27.61314383387949], [84.6577509178853, 27.61565738104976], [84.6612424005222, 27.61481947063569], [84.66337329036934, 27.617151000757275], [84.6647040539569, 27.619895717634996], [84.66650303453255, 27.622803031789413], [84.66740245230444, 27.625811081136124], [84.66589792593808, 27.62841619184917], [84.66588067024047, 27.63171213430171], [84.66850552613938, 27.63191696777659]]}}, {"type": "Feature", "properties": {"road_refno": "NH42", "link_code": "NH42-001", "link_name": "Thori - Bhandara", "district": "Parsa", "closed_section": false}, "geometry": {"type": "LineString", "coordinates": [[84.60517132050319, 27.35576960779505], [84.60558552503598, 27.3602577309587], [84.60613047604437, 27.36365514672996], [84.60691004865254, 27.367702953557675], [84.6065736103258, 27.3711013917376], [84.6053777814044, 27.37418860525747], [84.59968966256918, 27.377610808244533], [84.59162021770646, 27.386308370155803], [84.58949247096406, 27.391751996413518], [84.5880643721209, 27.399892124203635], [84.5862423940116, 27.40371559215196], [84.58560658270257, 27.410816709599633], [84.58719777640805, 27.418413735638953], [84.5938589897187, 27.427854065419783], [84.59810779619589, 27.434510890367307], [84.60902456470656, 27.444734273251456], [84.61276670455521, 27.451704098561653]]}}]}